{
"type": "FeatureCollection",
"name": "uttarakhand_road_hazard_light",
"crs": { "type": "name", "properties": { "name": "urn:ogc:def:crs:OGC:1.3:CRS84" } },
"features": [
{ "type": "Feature", "properties": { "hazard": "MODERATE", "hazard_code": 2, "risk": 2.0 }, "geometry": { "type": "LineString", "coordinates": [ [ 78.427577, 30.30019 ], [ 78.4276629, 30.3001066 ] ] } },
{ "type": "Feature", "properties": { "hazard": "MODERATE", "hazard_code": 2, "risk": 2.0 }, "geometry": { "type": "LineString", "coordinates": [ [ 78.4276629, 30.3001066 ], [ 78.4277594, 30.2999631 ] ] } },
{ "type": "Feature", "properties": { "hazard": "MODERATE", "hazard_code": 2, "risk": 2.0 }, "geometry": { "type": "LineString", "coordinates": [ [ 78.4277594, 30.2999631 ], [ 78.4280384, 30.2996806 ] ] } },
{ "type": "Feature", "properties": { "hazard": "MODERATE", "hazard_code": 2, "risk": 2.0 }, "geometry": { "type": "LineString", "coordinates": [ [ 78.4293902, 30.2998056 ], [ 78.4298086, 30.2998704 ] ] } },
{ "type": "Feature", "properties": { "hazard": "MODERATE", "hazard_code": 2, "risk": 2.0 }, "geometry": { "type": "LineString", "coordinates": [ [ 78.4298086, 30.2998704 ], [ 78.4300447, 30.2999538 ] ] } },
{ "type": "Feature", "properties": { "hazard": "MODERATE", "hazard_code": 2, "risk": 2.0 }, "geometry": { "type": "LineString", "coordinates": [ [ 78.4300447, 30.2999538 ], [ 78.4300876, 30.2999955 ] ] } },
{ "type": "Feature", "properties": { "hazard": "MODERATE", "hazard_code": 2, "risk": 2.0 }, "geometry": { "type": "LineString", "coordinates": [ [ 78.4300876, 30.2999955 ], [ 78.4301144, 30.3000742 ] ] } },
{ "type": "Feature", "properties": { "hazard": "MODERATE", "hazard_code": 2, "risk": 2.0 }, "geometry": { "type": "LineString", "coordinates": [ [ 78.4301144, 30.3000742 ], [ 78.4301198, 30.3001853 ] ] } },
{ "type": "Feature", "properties": { "hazard": "MODERATE", "hazard_code": 2, "risk": 2.0 }, "geometry": { "type": "LineString", "coordinates": [ [ 78.4301198, 30.3001853 ], [ 78.4302431, 30.3002733 ] ] } },
{ "type": "Feature", "properties": { "hazard": "MODERATE", "hazard_code": 2, "risk": 2.0 }, "geometry": { "type": "LineString", "coordinates": [ [ 78.4302592, 30.3004261 ], [ 78.4302163, 30.3007225 ] ] } },
{ "type": "Feature", "properties": { "hazard": "MODERATE", "hazard_code": 2, "risk": 2.0 }, "geometry": { "type": "LineString", "coordinates": [ [ 78.4302163, 30.3007225 ], [ 78.4302753, 30.3008197 ] ] } },
{ "type": "Feature", "properties": { "hazard": "MODERATE", "hazard_code": 2, "risk": 2.0 }, "geometry": { "type": "LineString", "coordinates": [ [ 78.4259516, 30.3007179 ], [ 78.4263593, 30.3008105 ] ] } },
{ "type": "Feature", "properties": { "hazard": "MODERATE", "hazard_code": 2, "risk": 2.0 }, "geometry": { "type": "LineString", "coordinates": [ [ 78.4263593, 30.3008105 ], [ 78.4264666, 30.3007503 ] ] } },
{ "type": "Feature", "properties": { "hazard": "MODERATE", "hazard_code": 2, "risk": 2.0 }, "geometry": { "type": "LineString", "coordinates": [ [ 78.4264666, 30.3007503 ], [ 78.4267294, 30.3006391 ] ] } },
{ "type": "Feature", "properties": { "hazard": "MODERATE", "hazard_code": 2, "risk": 2.0 }, "geometry": { "type": "LineString", "coordinates": [ [ 78.4267294, 30.3006391 ], [ 78.426767, 30.3005882 ] ] } },
{ "type": "Feature", "properties": { "hazard": "MODERATE", "hazard_code": 2, "risk": 2.0 }, "geometry": { "type": "LineString", "coordinates": [ [ 78.426767, 30.3005882 ], [ 78.4268153, 30.30044 ] ] } },
{ "type": "Feature", "properties": { "hazard": "MODERATE", "hazard_code": 2, "risk": 2.0 }, "geometry": { "type": "LineString", "coordinates": [ [ 78.4268153, 30.30044 ], [ 78.4269226, 30.3003659 ] ] } },
{ "type": "Feature", "properties": { "hazard": "MODERATE", "hazard_code": 2, "risk": 2.0 }, "geometry": { "type": "LineString", "coordinates": [ [ 78.4269226, 30.3003659 ], [ 78.427105, 30.300315 ] ] } },
{ "type": "Feature", "properties": { "hazard": "MODERATE", "hazard_code": 2, "risk": 2.0 }, "geometry": { "type": "LineString", "coordinates": [ [ 78.427105, 30.300315 ], [ 78.4274, 30.3002594 ] ] } },
{ "type": "Feature", "properties": { "hazard": "MODERATE", "hazard_code": 2, "risk": 2.0 }, "geometry": { "type": "LineString", "coordinates": [ [ 78.4274, 30.3002594 ], [ 78.427577, 30.30019 ] ] } },
{ "type": "Feature", "properties": { "hazard": "SIGNIFICANT", "hazard_code": 3, "risk": 4.0 }, "geometry": { "type": "LineString", "coordinates": [ [ 79.6569622, 29.6617328 ], [ 79.6569675, 29.6615674 ] ] } },
{ "type": "Feature", "properties": { "hazard": "SIGNIFICANT", "hazard_code": 3, "risk": 4.0 }, "geometry": { "type": "LineString", "coordinates": [ [ 79.6569675, 29.6615674 ], [ 79.6572357, 29.6612014 ] ] } },
{ "type": "Feature", "properties": { "hazard": "SIGNIFICANT", "hazard_code": 3, "risk": 4.0 }, "geometry": { "type": "LineString", "coordinates": [ [ 79.6572357, 29.6612014 ], [ 79.6574208, 29.6611525 ] ] } },
{ "type": "Feature", "properties": { "hazard": "SIGNIFICANT", "hazard_code": 3, "risk": 4.0 }, "geometry": { "type": "LineString", "coordinates": [ [ 79.6574208, 29.6611525 ], [ 79.6576408, 29.6611478 ] ] } },
{ "type": "Feature", "properties": { "hazard": "SIGNIFICANT", "hazard_code": 3, "risk": 4.0 }, "geometry": { "type": "LineString", "coordinates": [ [ 79.6576408, 29.6611478 ], [ 79.6577802, 29.6611968 ] ] } },
{ "type": "Feature", "properties": { "hazard": "SIGNIFICANT", "hazard_code": 3, "risk": 4.0 }, "geometry": { "type": "LineString", "coordinates": [ [ 79.6577802, 29.6611968 ], [ 79.6578366, 29.6612923 ] ] } },
{ "type": "Feature", "properties": { "hazard": "SIGNIFICANT", "hazard_code": 3, "risk": 4.0 }, "geometry": { "type": "LineString", "coordinates": [ [ 79.6578366, 29.6612923 ], [ 79.6578982, 29.6614462 ] ] } },
{ "type": "Feature", "properties": { "hazard": "SIGNIFICANT", "hazard_code": 3, "risk": 4.0 }, "geometry": { "type": "LineString", "coordinates": [ [ 79.6578982, 29.6614462 ], [ 79.658204, 29.6616536 ] ] } },
{ "type": "Feature", "properties": { "hazard": "SIGNIFICANT", "hazard_code": 3, "risk": 4.0 }, "geometry": { "type": "LineString", "coordinates": [ [ 79.658204, 29.6616536 ], [ 79.6582657, 29.6617282 ] ] } },
{ "type": "Feature", "properties": { "hazard": "SIGNIFICANT", "hazard_code": 3, "risk": 4.0 }, "geometry": { "type": "LineString", "coordinates": [ [ 79.6582657, 29.6617282 ], [ 79.6582523, 29.6618331 ] ] } },
{ "type": "Feature", "properties": { "hazard": "SIGNIFICANT", "hazard_code": 3, "risk": 4.0 }, "geometry": { "type": "LineString", "coordinates": [ [ 79.6582523, 29.6618331 ], [ 79.6582791, 29.6619636 ] ] } },
{ "type": "Feature", "properties": { "hazard": "SIGNIFICANT", "hazard_code": 3, "risk": 4.0 }, "geometry": { "type": "LineString", "coordinates": [ [ 79.6582791, 29.6619636 ], [ 79.6583301, 29.6620009 ] ] } },
{ "type": "Feature", "properties": { "hazard": "SIGNIFICANT", "hazard_code": 3, "risk": 4.0 }, "geometry": { "type": "LineString", "coordinates": [ [ 79.6583301, 29.6620009 ], [ 79.6593735, 29.6624041 ] ] } },
{ "type": "Feature", "properties": { "hazard": "SIGNIFICANT", "hazard_code": 3, "risk": 4.0 }, "geometry": { "type": "LineString", "coordinates": [ [ 79.6552321, 29.6614415 ], [ 79.6553206, 29.6614182 ] ] } },
{ "type": "Feature", "properties": { "hazard": "SIGNIFICANT", "hazard_code": 3, "risk": 4.0 }, "geometry": { "type": "LineString", "coordinates": [ [ 79.6553206, 29.6614182 ], [ 79.655672, 29.6610686 ] ] } },
{ "type": "Feature", "properties": { "hazard": "SIGNIFICANT", "hazard_code": 3, "risk": 4.0 }, "geometry": { "type": "LineString", "coordinates": [ [ 79.655672, 29.6610686 ], [ 79.6558624, 29.6609917 ] ] } },
{ "type": "Feature", "properties": { "hazard": "SIGNIFICANT", "hazard_code": 3, "risk": 4.0 }, "geometry": { "type": "LineString", "coordinates": [ [ 79.6558624, 29.6609917 ], [ 79.655959, 29.6610103 ] ] } },
{ "type": "Feature", "properties": { "hazard": "SIGNIFICANT", "hazard_code": 3, "risk": 4.0 }, "geometry": { "type": "LineString", "coordinates": [ [ 79.655959, 29.6610103 ], [ 79.6560475, 29.6610826 ] ] } },
{ "type": "Feature", "properties": { "hazard": "SIGNIFICANT", "hazard_code": 3, "risk": 4.0 }, "geometry": { "type": "LineString", "coordinates": [ [ 79.6560475, 29.6610826 ], [ 79.6560904, 29.6611688 ] ] } },
{ "type": "Feature", "properties": { "hazard": "SIGNIFICANT", "hazard_code": 3, "risk": 4.0 }, "geometry": { "type": "LineString", "coordinates": [ [ 79.6560904, 29.6611688 ], [ 79.6560824, 29.6620195 ] ] } },
{ "type": "Feature", "properties": { "hazard": "SIGNIFICANT", "hazard_code": 3, "risk": 4.0 }, "geometry": { "type": "LineString", "coordinates": [ [ 79.6560824, 29.6620195 ], [ 79.6561655, 29.662157 ] ] } },
{ "type": "Feature", "properties": { "hazard": "SIGNIFICANT", "hazard_code": 3, "risk": 4.0 }, "geometry": { "type": "LineString", "coordinates": [ [ 79.6561655, 29.662157 ], [ 79.6563747, 29.6623342 ] ] } },
{ "type": "Feature", "properties": { "hazard": "SIGNIFICANT", "hazard_code": 3, "risk": 4.0 }, "geometry": { "type": "LineString", "coordinates": [ [ 79.6563747, 29.6623342 ], [ 79.6567932, 29.6624321 ] ] } },
{ "type": "Feature", "properties": { "hazard": "SIGNIFICANT", "hazard_code": 3, "risk": 4.0 }, "geometry": { "type": "LineString", "coordinates": [ [ 79.6567932, 29.6624321 ], [ 79.6569702, 29.6624227 ] ] } },
{ "type": "Feature", "properties": { "hazard": "SIGNIFICANT", "hazard_code": 3, "risk": 4.0 }, "geometry": { "type": "LineString", "coordinates": [ [ 79.6569702, 29.6624227 ], [ 79.657056, 29.6623715 ] ] } },
{ "type": "Feature", "properties": { "hazard": "SIGNIFICANT", "hazard_code": 3, "risk": 4.0 }, "geometry": { "type": "LineString", "coordinates": [ [ 79.657056, 29.6623715 ], [ 79.6570694, 29.6623039 ] ] } },
{ "type": "Feature", "properties": { "hazard": "SIGNIFICANT", "hazard_code": 3, "risk": 4.0 }, "geometry": { "type": "LineString", "coordinates": [ [ 79.6570694, 29.6623039 ], [ 79.6569622, 29.6617328 ] ] } },
{ "type": "Feature", "properties": { "hazard": "EXTREME", "hazard_code": 4, "risk": 8.0 }, "geometry": { "type": "LineString", "coordinates": [ [ 78.5990988, 30.8052571 ], [ 78.5990521, 30.8048161 ] ] } },
{ "type": "Feature", "properties": { "hazard": "EXTREME", "hazard_code": 4, "risk": 8.0 }, "geometry": { "type": "LineString", "coordinates": [ [ 78.5990773, 30.8057271 ], [ 78.5990988, 30.8052571 ] ] } },
{ "type": "Feature", "properties": { "hazard": "EXTREME", "hazard_code": 4, "risk": 8.0 }, "geometry": { "type": "LineString", "coordinates": [ [ 78.5995816, 30.806197 ], [ 78.5990773, 30.8057271 ] ] } },
{ "type": "Feature", "properties": { "hazard": "EXTREME", "hazard_code": 4, "risk": 8.0 }, "geometry": { "type": "LineString", "coordinates": [ [ 78.601788, 30.8101516 ], [ 78.6012231, 30.8096526 ] ] } },
{ "type": "Feature", "properties": { "hazard": "EXTREME", "hazard_code": 4, "risk": 8.0 }, "geometry": { "type": "LineString", "coordinates": [ [ 78.6018239, 30.8105188 ], [ 78.601788, 30.8101516 ] ] } },
{ "type": "Feature", "properties": { "hazard": "EXTREME", "hazard_code": 4, "risk": 8.0 }, "geometry": { "type": "LineString", "coordinates": [ [ 78.602017, 30.8107768 ], [ 78.6018239, 30.8105188 ] ] } },
{ "type": "Feature", "properties": { "hazard": "EXTREME", "hazard_code": 4, "risk": 8.0 }, "geometry": { "type": "LineString", "coordinates": [ [ 78.6024531, 30.811331 ], [ 78.6020755, 30.8108511 ] ] } },
{ "type": "Feature", "properties": { "hazard": "EXTREME", "hazard_code": 4, "risk": 8.0 }, "geometry": { "type": "LineString", "coordinates": [ [ 78.6000968, 30.8006944 ], [ 78.5996623, 30.8002244 ] ] } },
{ "type": "Feature", "properties": { "hazard": "EXTREME", "hazard_code": 4, "risk": 8.0 }, "geometry": { "type": "LineString", "coordinates": [ [ 78.6004293, 30.8012381 ], [ 78.6000968, 30.8006944 ] ] } },
{ "type": "Feature", "properties": { "hazard": "EXTREME", "hazard_code": 4, "risk": 8.0 }, "geometry": { "type": "LineString", "coordinates": [ [ 78.6004776, 30.8013994 ], [ 78.6004293, 30.8012381 ] ] } },
{ "type": "Feature", "properties": { "hazard": "EXTREME", "hazard_code": 4, "risk": 8.0 }, "geometry": { "type": "LineString", "coordinates": [ [ 78.6004615, 30.8014961 ], [ 78.6004776, 30.8013994 ] ] } },
{ "type": "Feature", "properties": { "hazard": "EXTREME", "hazard_code": 4, "risk": 8.0 }, "geometry": { "type": "LineString", "coordinates": [ [ 78.600381, 30.8016067 ], [ 78.6004615, 30.8014961 ] ] } },
{ "type": "Feature", "properties": { "hazard": "EXTREME", "hazard_code": 4, "risk": 8.0 }, "geometry": { "type": "LineString", "coordinates": [ [ 78.6002845, 30.801662 ], [ 78.600381, 30.8016067 ] ] } },
{ "type": "Feature", "properties": { "hazard": "EXTREME", "hazard_code": 4, "risk": 8.0 }, "geometry": { "type": "LineString", "coordinates": [ [ 79.0994811, 30.3218363 ], [ 79.099701, 30.3216326 ] ] } },
{ "type": "Feature", "properties": { "hazard": "EXTREME", "hazard_code": 4, "risk": 8.0 }, "geometry": { "type": "LineString", "coordinates": [ [ 79.0994704, 30.3221281 ], [ 79.0994811, 30.3218363 ] ] } },
{ "type": "Feature", "properties": { "hazard": "EXTREME", "hazard_code": 4, "risk": 8.0 }, "geometry": { "type": "LineString", "coordinates": [ [ 79.0995133, 30.3222994 ], [ 79.0994704, 30.3221281 ] ] } },
{ "type": "Feature", "properties": { "hazard": "EXTREME", "hazard_code": 4, "risk": 8.0 }, "geometry": { "type": "LineString", "coordinates": [ [ 79.4904354, 30.7808747 ], [ 79.4905041, 30.7810496 ] ] } },
{ "type": "Feature", "properties": { "hazard": "EXTREME", "hazard_code": 4, "risk": 8.0 }, "geometry": { "type": "LineString", "coordinates": [ [ 79.4903023, 30.7808238 ], [ 79.4904354, 30.7808747 ] ] } },
{ "type": "Feature", "properties": { "hazard": "EXTREME", "hazard_code": 4, "risk": 8.0 }, "geometry": { "type": "LineString", "coordinates": [ [ 79.4902186, 30.7806909 ], [ 79.4903023, 30.7808238 ] ] } },
{ "type": "Feature", "properties": { "hazard": "EXTREME", "hazard_code": 4, "risk": 8.0 }, "geometry": { "type": "LineString", "coordinates": [ [ 79.490206, 30.7802797 ], [ 79.4902186, 30.7806909 ] ] } },
{ "type": "Feature", "properties": { "hazard": "EXTREME", "hazard_code": 4, "risk": 8.0 }, "geometry": { "type": "LineString", "coordinates": [ [ 79.4901378, 30.7800868 ], [ 79.490206, 30.7802797 ] ] } },
{ "type": "Feature", "properties": { "hazard": "EXTREME", "hazard_code": 4, "risk": 8.0 }, "geometry": { "type": "LineString", "coordinates": [ [ 79.4899763, 30.7798961 ], [ 79.4901378, 30.7800868 ] ] } },
{ "type": "Feature", "properties": { "hazard": "EXTREME", "hazard_code": 4, "risk": 8.0 }, "geometry": { "type": "LineString", "coordinates": [ [ 79.4899583, 30.7797126 ], [ 79.4899763, 30.7798961 ] ] } },
{ "type": "Feature", "properties": { "hazard": "EXTREME", "hazard_code": 4, "risk": 8.0 }, "geometry": { "type": "LineString", "coordinates": [ [ 79.4899631, 30.7795432 ], [ 79.4899583, 30.7797126 ] ] } },
{ "type": "Feature", "properties": { "hazard": "EXTREME", "hazard_code": 4, "risk": 8.0 }, "geometry": { "type": "LineString", "coordinates": [ [ 79.4901781, 30.7792432 ], [ 79.4899631, 30.7795432 ] ] } },
{ "type": "Feature", "properties": { "hazard": "EXTREME", "hazard_code": 4, "risk": 8.0 }, "geometry": { "type": "LineString", "coordinates": [ [ 79.4902238, 30.7791223 ], [ 79.4901781, 30.7792432 ] ] } },
{ "type": "Feature", "properties": { "hazard": "EXTREME", "hazard_code": 4, "risk": 8.0 }, "geometry": { "type": "LineString", "coordinates": [ [ 79.4901243, 30.7789594 ], [ 79.4902238, 30.7791223 ] ] } },
{ "type": "Feature", "properties": { "hazard": "EXTREME", "hazard_code": 4, "risk": 8.0 }, "geometry": { "type": "LineString", "coordinates": [ [ 79.4897397, 30.7783358 ], [ 79.4901243, 30.7789594 ] ] } },
{ "type": "Feature", "properties": { "hazard": "EXTREME", "hazard_code": 4, "risk": 8.0 }, "geometry": { "type": "LineString", "coordinates": [ [ 79.4907734, 30.7785332 ], [ 79.4906673, 30.7783981 ] ] } },
{ "type": "Feature", "properties": { "hazard": "EXTREME", "hazard_code": 4, "risk": 8.0 }, "geometry": { "type": "LineString", "coordinates": [ [ 79.4907782, 30.7789087 ], [ 79.4907734, 30.7785332 ] ] } },
{ "type": "Feature", "properties": { "hazard": "EXTREME", "hazard_code": 4, "risk": 8.0 }, "geometry": { "type": "LineString", "coordinates": [ [ 79.4908561, 30.7790842 ], [ 79.4907782, 30.7789087 ] ] } },
{ "type": "Feature", "properties": { "hazard": "EXTREME", "hazard_code": 4, "risk": 8.0 }, "geometry": { "type": "LineString", "coordinates": [ [ 78.5990521, 30.8048161 ], [ 78.5987125, 30.804225 ] ] } },
{ "type": "Feature", "properties": { "hazard": "EXTREME", "hazard_code": 4, "risk": 8.0 }, "geometry": { "type": "LineString", "coordinates": [ [ 80.0367088, 29.7339997 ], [ 80.0368256, 29.7341239 ] ] } },
{ "type": "Feature", "properties": { "hazard": "EXTREME", "hazard_code": 4, "risk": 8.0 }, "geometry": { "type": "LineString", "coordinates": [ [ 80.0366564, 29.7338353 ], [ 80.0367088, 29.7339997 ] ] } },
{ "type": "Feature", "properties": { "hazard": "EXTREME", "hazard_code": 4, "risk": 8.0 }, "geometry": { "type": "LineString", "coordinates": [ [ 80.0366443, 29.7335835 ], [ 80.0366564, 29.7338353 ] ] } },
{ "type": "Feature", "properties": { "hazard": "EXTREME", "hazard_code": 4, "risk": 8.0 }, "geometry": { "type": "LineString", "coordinates": [ [ 80.0366161, 29.7334873 ], [ 80.0366443, 29.7335835 ] ] } },
{ "type": "Feature", "properties": { "hazard": "EXTREME", "hazard_code": 4, "risk": 8.0 }, "geometry": { "type": "LineString", "coordinates": [ [ 80.0366564, 29.7333928 ], [ 80.0366161, 29.7334873 ] ] } },
{ "type": "Feature", "properties": { "hazard": "EXTREME", "hazard_code": 4, "risk": 8.0 }, "geometry": { "type": "LineString", "coordinates": [ [ 80.036737, 29.7333771 ], [ 80.0366564, 29.7333928 ] ] } },
{ "type": "Feature", "properties": { "hazard": "EXTREME", "hazard_code": 4, "risk": 8.0 }, "geometry": { "type": "LineString", "coordinates": [ [ 80.0368075, 29.7334155 ], [ 80.036737, 29.7333771 ] ] } },
{ "type": "Feature", "properties": { "hazard": "EXTREME", "hazard_code": 4, "risk": 8.0 }, "geometry": { "type": "LineString", "coordinates": [ [ 80.0368236, 29.7335275 ], [ 80.0368075, 29.7334155 ] ] } },
{ "type": "Feature", "properties": { "hazard": "EXTREME", "hazard_code": 4, "risk": 8.0 }, "geometry": { "type": "LineString", "coordinates": [ [ 80.0367652, 29.7337251 ], [ 80.0368236, 29.7335275 ] ] } },
{ "type": "Feature", "properties": { "hazard": "EXTREME", "hazard_code": 4, "risk": 8.0 }, "geometry": { "type": "LineString", "coordinates": [ [ 80.0367571, 29.7338546 ], [ 80.0367652, 29.7337251 ] ] } },
{ "type": "Feature", "properties": { "hazard": "EXTREME", "hazard_code": 4, "risk": 8.0 }, "geometry": { "type": "LineString", "coordinates": [ [ 80.0368014, 29.733942 ], [ 80.0367571, 29.7338546 ] ] } },
{ "type": "Feature", "properties": { "hazard": "EXTREME", "hazard_code": 4, "risk": 8.0 }, "geometry": { "type": "LineString", "coordinates": [ [ 80.0369646, 29.734005 ], [ 80.0368014, 29.733942 ] ] } },
{ "type": "Feature", "properties": { "hazard": "EXTREME", "hazard_code": 4, "risk": 8.0 }, "geometry": { "type": "LineString", "coordinates": [ [ 80.0373735, 29.7339438 ], [ 80.0369646, 29.734005 ] ] } },
{ "type": "Feature", "properties": { "hazard": "EXTREME", "hazard_code": 4, "risk": 8.0 }, "geometry": { "type": "LineString", "coordinates": [ [ 80.0378348, 29.7337601 ], [ 80.0373735, 29.7339438 ] ] } },
{ "type": "Feature", "properties": { "hazard": "EXTREME", "hazard_code": 4, "risk": 8.0 }, "geometry": { "type": "LineString", "coordinates": [ [ 80.0381309, 29.7335485 ], [ 80.0378348, 29.7337601 ] ] } },
{ "type": "Feature", "properties": { "hazard": "EXTREME", "hazard_code": 4, "risk": 8.0 }, "geometry": { "type": "LineString", "coordinates": [ [ 80.0382618, 29.73351 ], [ 80.0381309, 29.7335485 ] ] } },
{ "type": "Feature", "properties": { "hazard": "EXTREME", "hazard_code": 4, "risk": 8.0 }, "geometry": { "type": "LineString", "coordinates": [ [ 80.8836141, 30.191623 ], [ 80.8833969, 30.1916836 ] ] } },
{ "type": "Feature", "properties": { "hazard": "EXTREME", "hazard_code": 4, "risk": 8.0 }, "geometry": { "type": "LineString", "coordinates": [ [ 80.8837509, 30.1915413 ], [ 80.8836141, 30.191623 ] ] } },
{ "type": "Feature", "properties": { "hazard": "EXTREME", "hazard_code": 4, "risk": 8.0 }, "geometry": { "type": "LineString", "coordinates": [ [ 80.883944, 30.1911438 ], [ 80.8837509, 30.1915413 ] ] } },
{ "type": "Feature", "properties": { "hazard": "EXTREME", "hazard_code": 4, "risk": 8.0 }, "geometry": { "type": "LineString", "coordinates": [ [ 80.884062, 30.1908192 ], [ 80.883944, 30.1911438 ] ] } },
{ "type": "Feature", "properties": { "hazard": "EXTREME", "hazard_code": 4, "risk": 8.0 }, "geometry": { "type": "LineString", "coordinates": [ [ 80.8838689, 30.1903555 ], [ 80.884062, 30.1908192 ] ] } },
{ "type": "Feature", "properties": { "hazard": "EXTREME", "hazard_code": 4, "risk": 8.0 }, "geometry": { "type": "LineString", "coordinates": [ [ 80.8839977, 30.1898918 ], [ 80.8838689, 30.1903555 ] ] } },
{ "type": "Feature", "properties": { "hazard": "EXTREME", "hazard_code": 4, "risk": 8.0 }, "geometry": { "type": "LineString", "coordinates": [ [ 80.884223, 30.1894374 ], [ 80.8839977, 30.1898918 ] ] } },
{ "type": "Feature", "properties": { "hazard": "EXTREME", "hazard_code": 4, "risk": 8.0 }, "geometry": { "type": "LineString", "coordinates": [ [ 80.03873, 29.7331384 ], [ 80.0389393, 29.7331334 ] ] } },
{ "type": "Feature", "properties": { "hazard": "EXTREME", "hazard_code": 4, "risk": 8.0 }, "geometry": { "type": "LineString", "coordinates": [ [ 80.0384612, 29.7332085 ], [ 80.03873, 29.7331384 ] ] } },
{ "type": "Feature", "properties": { "hazard": "EXTREME", "hazard_code": 4, "risk": 8.0 }, "geometry": { "type": "LineString", "coordinates": [ [ 80.0382577, 29.7332218 ], [ 80.0384612, 29.7332085 ] ] } },
{ "type": "Feature", "properties": { "hazard": "EXTREME", "hazard_code": 4, "risk": 8.0 }, "geometry": { "type": "LineString", "coordinates": [ [ 80.0381464, 29.7332751 ], [ 80.0382577, 29.7332218 ] ] } },
{ "type": "Feature", "properties": { "hazard": "EXTREME", "hazard_code": 4, "risk": 8.0 }, "geometry": { "type": "LineString", "coordinates": [ [ 80.0364912, 29.7342254 ], [ 80.0359997, 29.7343128 ] ] } },
{ "type": "Feature", "properties": { "hazard": "EXTREME", "hazard_code": 4, "risk": 8.0 }, "geometry": { "type": "LineString", "coordinates": [ [ 80.0366604, 29.7342324 ], [ 80.0364912, 29.7342254 ] ] } },
{ "type": "Feature", "properties": { "hazard": "EXTREME", "hazard_code": 4, "risk": 8.0 }, "geometry": { "type": "LineString", "coordinates": [ [ 80.0367833, 29.7342271 ], [ 80.0366604, 29.7342324 ] ] } },
{ "type": "Feature", "properties": { "hazard": "EXTREME", "hazard_code": 4, "risk": 8.0 }, "geometry": { "type": "LineString", "coordinates": [ [ 80.0368276, 29.7341886 ], [ 80.0367833, 29.7342271 ] ] } },
{ "type": "Feature", "properties": { "hazard": "EXTREME", "hazard_code": 4, "risk": 8.0 }, "geometry": { "type": "LineString", "coordinates": [ [ 80.0368256, 29.7341239 ], [ 80.0368276, 29.7341886 ] ] } },
{ "type": "Feature", "properties": { "hazard": "EXTREME", "hazard_code": 4, "risk": 8.0 }, "geometry": { "type": "LineString", "coordinates": [ [ 79.8142775, 30.8285028 ], [ 79.8142591, 30.828748 ] ] } },
{ "type": "Feature", "properties": { "hazard": "EXTREME", "hazard_code": 4, "risk": 8.0 }, "geometry": { "type": "LineString", "coordinates": [ [ 79.8141609, 30.8279242 ], [ 79.8142775, 30.8285028 ] ] } },
{ "type": "Feature", "properties": { "hazard": "EXTREME", "hazard_code": 4, "risk": 8.0 }, "geometry": { "type": "LineString", "coordinates": [ [ 79.8142496, 30.826784 ], [ 79.8141609, 30.8279242 ] ] } },
{ "type": "Feature", "properties": { "hazard": "EXTREME", "hazard_code": 4, "risk": 8.0 }, "geometry": { "type": "LineString", "coordinates": [ [ 79.8139054, 30.8262485 ], [ 79.8142496, 30.826784 ] ] } },
{ "type": "Feature", "properties": { "hazard": "EXTREME", "hazard_code": 4, "risk": 8.0 }, "geometry": { "type": "LineString", "coordinates": [ [ 79.8139285, 30.8251498 ], [ 79.8139054, 30.8262485 ] ] } },
{ "type": "Feature", "properties": { "hazard": "EXTREME", "hazard_code": 4, "risk": 8.0 }, "geometry": { "type": "LineString", "coordinates": [ [ 80.8837402, 30.194816 ], [ 80.8843839, 30.1952426 ] ] } },
{ "type": "Feature", "properties": { "hazard": "EXTREME", "hazard_code": 4, "risk": 8.0 }, "geometry": { "type": "LineString", "coordinates": [ [ 80.8836335, 30.194625 ], [ 80.8837402, 30.194816 ] ] } },
{ "type": "Feature", "properties": { "hazard": "EXTREME", "hazard_code": 4, "risk": 8.0 }, "geometry": { "type": "LineString", "coordinates": [ [ 80.8836007, 30.1942967 ], [ 80.8836335, 30.194625 ] ] } },
{ "type": "Feature", "properties": { "hazard": "EXTREME", "hazard_code": 4, "risk": 8.0 }, "geometry": { "type": "LineString", "coordinates": [ [ 80.8838797, 30.1930912 ], [ 80.8836007, 30.1942967 ] ] } },
{ "type": "Feature", "properties": { "hazard": "EXTREME", "hazard_code": 4, "risk": 8.0 }, "geometry": { "type": "LineString", "coordinates": [ [ 80.8839096, 30.1927153 ], [ 80.8838797, 30.1930912 ] ] } },
{ "type": "Feature", "properties": { "hazard": "EXTREME", "hazard_code": 4, "risk": 8.0 }, "geometry": { "type": "LineString", "coordinates": [ [ 80.8838287, 30.1922763 ], [ 80.8839096, 30.1927153 ] ] } },
{ "type": "Feature", "properties": { "hazard": "EXTREME", "hazard_code": 4, "risk": 8.0 }, "geometry": { "type": "LineString", "coordinates": [ [ 80.8836369, 30.1920618 ], [ 80.8838287, 30.1922763 ] ] } },
{ "type": "Feature", "properties": { "hazard": "EXTREME", "hazard_code": 4, "risk": 8.0 }, "geometry": { "type": "LineString", "coordinates": [ [ 80.8833841, 30.1919361 ], [ 80.8836369, 30.1920618 ] ] } },
{ "type": "Feature", "properties": { "hazard": "EXTREME", "hazard_code": 4, "risk": 8.0 }, "geometry": { "type": "LineString", "coordinates": [ [ 80.8832319, 30.1918335 ], [ 80.8833841, 30.1919361 ] ] } },
{ "type": "Feature", "properties": { "hazard": "EXTREME", "hazard_code": 4, "risk": 8.0 }, "geometry": { "type": "LineString", "coordinates": [ [ 80.88324, 30.1917326 ], [ 80.8832319, 30.1918335 ] ] } },
{ "type": "Feature", "properties": { "hazard": "EXTREME", "hazard_code": 4, "risk": 8.0 }, "geometry": { "type": "LineString", "coordinates": [ [ 80.8833969, 30.1916836 ], [ 80.88324, 30.1917326 ] ] } },
{ "type": "Feature", "properties": { "hazard": "EXTREME", "hazard_code": 4, "risk": 8.0 }, "geometry": { "type": "LineString", "coordinates": [ [ 79.814497, 30.829674 ], [ 79.8148649, 30.8304295 ] ] } },
{ "type": "Feature", "properties": { "hazard": "EXTREME", "hazard_code": 4, "risk": 8.0 }, "geometry": { "type": "LineString", "coordinates": [ [ 79.8142591, 30.828748 ], [ 79.814497, 30.829674 ] ] } },
{ "type": "Feature", "properties": { "hazard": "EXTREME", "hazard_code": 4, "risk": 8.0 }, "geometry": { "type": "LineString", "coordinates": [ [ 80.0385055, 29.7334645 ], [ 80.0382618, 29.73351 ] ] } },
{ "type": "Feature", "properties": { "hazard": "EXTREME", "hazard_code": 4, "risk": 8.0 }, "geometry": { "type": "LineString", "coordinates": [ [ 80.0385579, 29.7334208 ], [ 80.0385055, 29.7334645 ] ] } },
{ "type": "Feature", "properties": { "hazard": "EXTREME", "hazard_code": 4, "risk": 8.0 }, "geometry": { "type": "LineString", "coordinates": [ [ 80.0385519, 29.7333386 ], [ 80.0385579, 29.7334208 ] ] } },
{ "type": "Feature", "properties": { "hazard": "EXTREME", "hazard_code": 4, "risk": 8.0 }, "geometry": { "type": "LineString", "coordinates": [ [ 80.0384391, 29.7332914 ], [ 80.0385519, 29.7333386 ] ] } },
{ "type": "Feature", "properties": { "hazard": "EXTREME", "hazard_code": 4, "risk": 8.0 }, "geometry": { "type": "LineString", "coordinates": [ [ 80.038292, 29.7332739 ], [ 80.0384391, 29.7332914 ] ] } },
{ "type": "Feature", "properties": { "hazard": "EXTREME", "hazard_code": 4, "risk": 8.0 }, "geometry": { "type": "LineString", "coordinates": [ [ 80.0381228, 29.7333438 ], [ 80.0381464, 29.7332751 ] ] } },
{ "type": "Feature", "properties": { "hazard": "EXTREME", "hazard_code": 4, "risk": 8.0 }, "geometry": { "type": "LineString", "coordinates": [ [ 80.0381228, 29.7333438 ], [ 80.038292, 29.7332739 ] ] } },
{ "type": "Feature", "properties": { "hazard": "EXTREME", "hazard_code": 4, "risk": 8.0 }, "geometry": { "type": "LineString", "coordinates": [ [ 80.0378529, 29.733517 ], [ 80.0381228, 29.7333438 ] ] } },
{ "type": "Feature", "properties": { "hazard": "EXTREME", "hazard_code": 4, "risk": 8.0 }, "geometry": { "type": "LineString", "coordinates": [ [ 80.0375528, 29.7336482 ], [ 80.0378529, 29.733517 ] ] } },
{ "type": "Feature", "properties": { "hazard": "EXTREME", "hazard_code": 4, "risk": 8.0 }, "geometry": { "type": "LineString", "coordinates": [ [ 80.0373977, 29.7336517 ], [ 80.0375528, 29.7336482 ] ] } },
{ "type": "Feature", "properties": { "hazard": "EXTREME", "hazard_code": 4, "risk": 8.0 }, "geometry": { "type": "LineString", "coordinates": [ [ 80.0372526, 29.7336132 ], [ 80.0373977, 29.7336517 ] ] } },
{ "type": "Feature", "properties": { "hazard": "EXTREME", "hazard_code": 4, "risk": 8.0 }, "geometry": { "type": "LineString", "coordinates": [ [ 80.0371338, 29.7335502 ], [ 80.0372526, 29.7336132 ] ] } },
{ "type": "Feature", "properties": { "hazard": "EXTREME", "hazard_code": 4, "risk": 8.0 }, "geometry": { "type": "LineString", "coordinates": [ [ 80.0370875, 29.7334558 ], [ 80.0371338, 29.7335502 ] ] } },
{ "type": "Feature", "properties": { "hazard": "EXTREME", "hazard_code": 4, "risk": 8.0 }, "geometry": { "type": "LineString", "coordinates": [ [ 80.0371116, 29.7332231 ], [ 80.0370875, 29.7334558 ] ] } },
{ "type": "Feature", "properties": { "hazard": "EXTREME", "hazard_code": 4, "risk": 8.0 }, "geometry": { "type": "LineString", "coordinates": [ [ 80.0371036, 29.733099 ], [ 80.0371116, 29.7332231 ] ] } },
{ "type": "Feature", "properties": { "hazard": "EXTREME", "hazard_code": 4, "risk": 8.0 }, "geometry": { "type": "LineString", "coordinates": [ [ 80.0370633, 29.7330482 ], [ 80.0371036, 29.733099 ] ] } },
{ "type": "Feature", "properties": { "hazard": "EXTREME", "hazard_code": 4, "risk": 8.0 }, "geometry": { "type": "LineString", "coordinates": [ [ 78.6082077, 30.8128309 ], [ 78.6079213, 30.8120925 ] ] } },
{ "type": "Feature", "properties": { "hazard": "EXTREME", "hazard_code": 4, "risk": 8.0 }, "geometry": { "type": "LineString", "coordinates": [ [ 78.6088085, 30.813539 ], [ 78.6082077, 30.8128309 ] ] } },
{ "type": "Feature", "properties": { "hazard": "EXTREME", "hazard_code": 4, "risk": 8.0 }, "geometry": { "type": "LineString", "coordinates": [ [ 78.6092753, 30.8143468 ], [ 78.6088085, 30.813539 ] ] } },
{ "type": "Feature", "properties": { "hazard": "EXTREME", "hazard_code": 4, "risk": 8.0 }, "geometry": { "type": "LineString", "coordinates": [ [ 78.6101647, 30.8093503 ], [ 78.6103856, 30.809688 ] ] } },
{ "type": "Feature", "properties": { "hazard": "EXTREME", "hazard_code": 4, "risk": 8.0 }, "geometry": { "type": "LineString", "coordinates": [ [ 78.6070919, 30.8138609 ], [ 78.6071563, 30.8147407 ] ] } },
{ "type": "Feature", "properties": { "hazard": "EXTREME", "hazard_code": 4, "risk": 8.0 }, "geometry": { "type": "LineString", "coordinates": [ [ 78.6070061, 30.8130026 ], [ 78.6070919, 30.8138609 ] ] } },
{ "type": "Feature", "properties": { "hazard": "EXTREME", "hazard_code": 4, "risk": 8.0 }, "geometry": { "type": "LineString", "coordinates": [ [ 78.6070275, 30.8121014 ], [ 78.6070061, 30.8130026 ] ] } },
{ "type": "Feature", "properties": { "hazard": "EXTREME", "hazard_code": 4, "risk": 8.0 }, "geometry": { "type": "LineString", "coordinates": [ [ 78.606827, 30.8112493 ], [ 78.6070275, 30.8121014 ] ] } },
{ "type": "Feature", "properties": { "hazard": "EXTREME", "hazard_code": 4, "risk": 8.0 }, "geometry": { "type": "LineString", "coordinates": [ [ 78.6068618, 30.8107932 ], [ 78.606827, 30.8112493 ] ] } },
{ "type": "Feature", "properties": { "hazard": "EXTREME", "hazard_code": 4, "risk": 8.0 }, "geometry": { "type": "LineString", "coordinates": [ [ 78.6068833, 30.8106803 ], [ 78.6068618, 30.8107932 ] ] } },
{ "type": "Feature", "properties": { "hazard": "EXTREME", "hazard_code": 4, "risk": 8.0 }, "geometry": { "type": "LineString", "coordinates": [ [ 78.6069101, 30.8106366 ], [ 78.6068833, 30.8106803 ] ] } },
{ "type": "Feature", "properties": { "hazard": "EXTREME", "hazard_code": 4, "risk": 8.0 }, "geometry": { "type": "LineString", "coordinates": [ [ 78.6069557, 30.8106688 ], [ 78.6069101, 30.8106366 ] ] } },
{ "type": "Feature", "properties": { "hazard": "EXTREME", "hazard_code": 4, "risk": 8.0 }, "geometry": { "type": "LineString", "coordinates": [ [ 78.6069825, 30.8107932 ], [ 78.6069557, 30.8106688 ] ] } },
{ "type": "Feature", "properties": { "hazard": "EXTREME", "hazard_code": 4, "risk": 8.0 }, "geometry": { "type": "LineString", "coordinates": [ [ 78.6070281, 30.8111756 ], [ 78.6069825, 30.8107932 ] ] } },
{ "type": "Feature", "properties": { "hazard": "EXTREME", "hazard_code": 4, "risk": 8.0 }, "geometry": { "type": "LineString", "coordinates": [ [ 78.6071274, 30.8114475 ], [ 78.6070281, 30.8111756 ] ] } },
{ "type": "Feature", "properties": { "hazard": "EXTREME", "hazard_code": 4, "risk": 8.0 }, "geometry": { "type": "LineString", "coordinates": [ [ 78.607358, 30.8116847 ], [ 78.6071274, 30.8114475 ] ] } },
{ "type": "Feature", "properties": { "hazard": "EXTREME", "hazard_code": 4, "risk": 8.0 }, "geometry": { "type": "LineString", "coordinates": [ [ 78.6075565, 30.8118598 ], [ 78.607358, 30.8116847 ] ] } },
{ "type": "Feature", "properties": { "hazard": "EXTREME", "hazard_code": 4, "risk": 8.0 }, "geometry": { "type": "LineString", "coordinates": [ [ 78.6077416, 30.8120003 ], [ 78.6075565, 30.8118598 ] ] } },
{ "type": "Feature", "properties": { "hazard": "EXTREME", "hazard_code": 4, "risk": 8.0 }, "geometry": { "type": "LineString", "coordinates": [ [ 78.6079213, 30.8120925 ], [ 78.6077416, 30.8120003 ] ] } },
{ "type": "Feature", "properties": { "hazard": "EXTREME", "hazard_code": 4, "risk": 8.0 }, "geometry": { "type": "LineString", "coordinates": [ [ 80.0372889, 29.7326862 ], [ 80.0371842, 29.7326214 ] ] } },
{ "type": "Feature", "properties": { "hazard": "EXTREME", "hazard_code": 4, "risk": 8.0 }, "geometry": { "type": "LineString", "coordinates": [ [ 80.0373735, 29.7327806 ], [ 80.0372889, 29.7326862 ] ] } },
{ "type": "Feature", "properties": { "hazard": "EXTREME", "hazard_code": 4, "risk": 8.0 }, "geometry": { "type": "LineString", "coordinates": [ [ 80.0376575, 29.7327544 ], [ 80.0373735, 29.7327806 ] ] } },
{ "type": "Feature", "properties": { "hazard": "EXTREME", "hazard_code": 4, "risk": 8.0 }, "geometry": { "type": "LineString", "coordinates": [ [ 80.0379919, 29.7326564 ], [ 80.0376575, 29.7327544 ] ] } },
{ "type": "Feature", "properties": { "hazard": "EXTREME", "hazard_code": 4, "risk": 8.0 }, "geometry": { "type": "LineString", "coordinates": [ [ 80.0382256, 29.7326249 ], [ 80.0379919, 29.7326564 ] ] } },
{ "type": "Feature", "properties": { "hazard": "EXTREME", "hazard_code": 4, "risk": 8.0 }, "geometry": { "type": "LineString", "coordinates": [ [ 80.0383827, 29.7325707 ], [ 80.0382256, 29.7326249 ] ] } },
{ "type": "Feature", "properties": { "hazard": "EXTREME", "hazard_code": 4, "risk": 8.0 }, "geometry": { "type": "LineString", "coordinates": [ [ 80.0385559, 29.7324325 ], [ 80.0383827, 29.7325707 ] ] } },
{ "type": "Feature", "properties": { "hazard": "EXTREME", "hazard_code": 4, "risk": 8.0 }, "geometry": { "type": "LineString", "coordinates": [ [ 80.0386606, 29.7324185 ], [ 80.0385559, 29.7324325 ] ] } },
{ "type": "Feature", "properties": { "hazard": "EXTREME", "hazard_code": 4, "risk": 8.0 }, "geometry": { "type": "LineString", "coordinates": [ [ 80.0388419, 29.7323678 ], [ 80.0386606, 29.7324185 ] ] } },
{ "type": "Feature", "properties": { "hazard": "EXTREME", "hazard_code": 4, "risk": 8.0 }, "geometry": { "type": "LineString", "coordinates": [ [ 78.6102486, 30.8106556 ], [ 78.6103237, 30.8109667 ] ] } },
{ "type": "Feature", "properties": { "hazard": "EXTREME", "hazard_code": 4, "risk": 8.0 }, "geometry": { "type": "LineString", "coordinates": [ [ 78.6101514, 30.8103938 ], [ 78.6102486, 30.8106556 ] ] } },
{ "type": "Feature", "properties": { "hazard": "EXTREME", "hazard_code": 4, "risk": 8.0 }, "geometry": { "type": "LineString", "coordinates": [ [ 78.6101249, 30.8103331 ], [ 78.6101514, 30.8103938 ] ] } },
{ "type": "Feature", "properties": { "hazard": "EXTREME", "hazard_code": 4, "risk": 8.0 }, "geometry": { "type": "LineString", "coordinates": [ [ 78.6101338, 30.8102951 ], [ 78.6101249, 30.8103331 ] ] } },
{ "type": "Feature", "properties": { "hazard": "EXTREME", "hazard_code": 4, "risk": 8.0 }, "geometry": { "type": "LineString", "coordinates": [ [ 78.6101691, 30.8102761 ], [ 78.6101338, 30.8102951 ] ] } },
{ "type": "Feature", "properties": { "hazard": "EXTREME", "hazard_code": 4, "risk": 8.0 }, "geometry": { "type": "LineString", "coordinates": [ [ 78.6102177, 30.8103027 ], [ 78.6101691, 30.8102761 ] ] } },
{ "type": "Feature", "properties": { "hazard": "EXTREME", "hazard_code": 4, "risk": 8.0 }, "geometry": { "type": "LineString", "coordinates": [ [ 78.6103282, 30.8104621 ], [ 78.6102177, 30.8103027 ] ] } },
{ "type": "Feature", "properties": { "hazard": "EXTREME", "hazard_code": 4, "risk": 8.0 }, "geometry": { "type": "LineString", "coordinates": [ [ 80.0342352, 29.7317521 ], [ 80.0340177, 29.7316402 ] ] } },
{ "type": "Feature", "properties": { "hazard": "EXTREME", "hazard_code": 4, "risk": 8.0 }, "geometry": { "type": "LineString", "coordinates": [ [ 80.0344246, 29.7318238 ], [ 80.0343021, 29.7317775 ] ] } },
{ "type": "Feature", "properties": { "hazard": "EXTREME", "hazard_code": 4, "risk": 8.0 }, "geometry": { "type": "LineString", "coordinates": [ [ 80.0348758, 29.7318658 ], [ 80.0344246, 29.7318238 ] ] } },
{ "type": "Feature", "properties": { "hazard": "EXTREME", "hazard_code": 4, "risk": 8.0 }, "geometry": { "type": "LineString", "coordinates": [ [ 80.0350671, 29.7319008 ], [ 80.0348758, 29.7318658 ] ] } },
{ "type": "Feature", "properties": { "hazard": "EXTREME", "hazard_code": 4, "risk": 8.0 }, "geometry": { "type": "LineString", "coordinates": [ [ 80.035184, 29.731955 ], [ 80.0350671, 29.7319008 ] ] } },
{ "type": "Feature", "properties": { "hazard": "EXTREME", "hazard_code": 4, "risk": 8.0 }, "geometry": { "type": "LineString", "coordinates": [ [ 80.0352931, 29.732029 ], [ 80.035184, 29.731955 ] ] } },
{ "type": "Feature", "properties": { "hazard": "EXTREME", "hazard_code": 4, "risk": 8.0 }, "geometry": { "type": "LineString", "coordinates": [ [ 80.0353591, 29.7321282 ], [ 80.0352931, 29.732029 ] ] } },
{ "type": "Feature", "properties": { "hazard": "EXTREME", "hazard_code": 4, "risk": 8.0 }, "geometry": { "type": "LineString", "coordinates": [ [ 80.0355002, 29.7322646 ], [ 80.0353591, 29.7321282 ] ] } },
{ "type": "Feature", "properties": { "hazard": "EXTREME", "hazard_code": 4, "risk": 8.0 }, "geometry": { "type": "LineString", "coordinates": [ [ 80.0358789, 29.732527 ], [ 80.0355002, 29.7322646 ] ] } },
{ "type": "Feature", "properties": { "hazard": "EXTREME", "hazard_code": 4, "risk": 8.0 }, "geometry": { "type": "LineString", "coordinates": [ [ 80.0359877, 29.732562 ], [ 80.0358789, 29.732527 ] ] } },
{ "type": "Feature", "properties": { "hazard": "EXTREME", "hazard_code": 4, "risk": 8.0 }, "geometry": { "type": "LineString", "coordinates": [ [ 80.0363805, 29.7325357 ], [ 80.0359877, 29.732562 ] ] } },
{ "type": "Feature", "properties": { "hazard": "EXTREME", "hazard_code": 4, "risk": 8.0 }, "geometry": { "type": "LineString", "coordinates": [ [ 80.0365557, 29.7325515 ], [ 80.0363805, 29.7325357 ] ] } },
{ "type": "Feature", "properties": { "hazard": "EXTREME", "hazard_code": 4, "risk": 8.0 }, "geometry": { "type": "LineString", "coordinates": [ [ 80.0366705, 29.7325795 ], [ 80.0365557, 29.7325515 ] ] } },
{ "type": "Feature", "properties": { "hazard": "EXTREME", "hazard_code": 4, "risk": 8.0 }, "geometry": { "type": "LineString", "coordinates": [ [ 80.0368001, 29.7326144 ], [ 80.0366705, 29.7325795 ] ] } },
{ "type": "Feature", "properties": { "hazard": "EXTREME", "hazard_code": 4, "risk": 8.0 }, "geometry": { "type": "LineString", "coordinates": [ [ 80.0370955, 29.7325987 ], [ 80.0368001, 29.7326144 ] ] } },
{ "type": "Feature", "properties": { "hazard": "EXTREME", "hazard_code": 4, "risk": 8.0 }, "geometry": { "type": "LineString", "coordinates": [ [ 80.0371842, 29.7326214 ], [ 80.0370955, 29.7325987 ] ] } },
{ "type": "Feature", "properties": { "hazard": "EXTREME", "hazard_code": 4, "risk": 8.0 }, "geometry": { "type": "LineString", "coordinates": [ [ 80.0362819, 29.7262209 ], [ 80.0363756, 29.7260306 ] ] } },
{ "type": "Feature", "properties": { "hazard": "EXTREME", "hazard_code": 4, "risk": 8.0 }, "geometry": { "type": "LineString", "coordinates": [ [ 80.036249, 29.7263263 ], [ 80.0362819, 29.7262209 ] ] } },
{ "type": "Feature", "properties": { "hazard": "EXTREME", "hazard_code": 4, "risk": 8.0 }, "geometry": { "type": "LineString", "coordinates": [ [ 80.0348248, 29.7303537 ], [ 80.0348485, 29.7302733 ] ] } },
{ "type": "Feature", "properties": { "hazard": "EXTREME", "hazard_code": 4, "risk": 8.0 }, "geometry": { "type": "LineString", "coordinates": [ [ 80.0348042, 29.7305459 ], [ 80.0348248, 29.7303537 ] ] } },
{ "type": "Feature", "properties": { "hazard": "EXTREME", "hazard_code": 4, "risk": 8.0 }, "geometry": { "type": "LineString", "coordinates": [ [ 80.034769, 29.7306729 ], [ 80.0348042, 29.7305459 ] ] } },
{ "type": "Feature", "properties": { "hazard": "EXTREME", "hazard_code": 4, "risk": 8.0 }, "geometry": { "type": "LineString", "coordinates": [ [ 80.0345978, 29.7310332 ], [ 80.034769, 29.7306729 ] ] } },
{ "type": "Feature", "properties": { "hazard": "EXTREME", "hazard_code": 4, "risk": 8.0 }, "geometry": { "type": "LineString", "coordinates": [ [ 80.0344709, 29.7311714 ], [ 80.0345978, 29.7310332 ] ] } },
{ "type": "Feature", "properties": { "hazard": "EXTREME", "hazard_code": 4, "risk": 8.0 }, "geometry": { "type": "LineString", "coordinates": [ [ 80.03416, 29.7312927 ], [ 80.0344709, 29.7311714 ] ] } },
{ "type": "Feature", "properties": { "hazard": "EXTREME", "hazard_code": 4, "risk": 8.0 }, "geometry": { "type": "LineString", "coordinates": [ [ 80.0340311, 29.7313395 ], [ 80.03416, 29.7312927 ] ] } },
{ "type": "Feature", "properties": { "hazard": "EXTREME", "hazard_code": 4, "risk": 8.0 }, "geometry": { "type": "LineString", "coordinates": [ [ 80.0339351, 29.7313831 ], [ 80.0340311, 29.7313395 ] ] } },
{ "type": "Feature", "properties": { "hazard": "EXTREME", "hazard_code": 4, "risk": 8.0 }, "geometry": { "type": "LineString", "coordinates": [ [ 80.0338796, 29.7314315 ], [ 80.0339351, 29.7313831 ] ] } },
{ "type": "Feature", "properties": { "hazard": "EXTREME", "hazard_code": 4, "risk": 8.0 }, "geometry": { "type": "LineString", "coordinates": [ [ 80.0338505, 29.7314828 ], [ 80.0338796, 29.7314315 ] ] } },
{ "type": "Feature", "properties": { "hazard": "EXTREME", "hazard_code": 4, "risk": 8.0 }, "geometry": { "type": "LineString", "coordinates": [ [ 80.0338487, 29.7315165 ], [ 80.0338505, 29.7314828 ] ] } },
{ "type": "Feature", "properties": { "hazard": "EXTREME", "hazard_code": 4, "risk": 8.0 }, "geometry": { "type": "LineString", "coordinates": [ [ 80.0338648, 29.7315457 ], [ 80.0338487, 29.7315165 ] ] } },
{ "type": "Feature", "properties": { "hazard": "EXTREME", "hazard_code": 4, "risk": 8.0 }, "geometry": { "type": "LineString", "coordinates": [ [ 80.0339136, 29.7315795 ], [ 80.0338648, 29.7315457 ] ] } },
{ "type": "Feature", "properties": { "hazard": "EXTREME", "hazard_code": 4, "risk": 8.0 }, "geometry": { "type": "LineString", "coordinates": [ [ 80.0340177, 29.7316402 ], [ 80.0339136, 29.7315795 ] ] } },
{ "type": "Feature", "properties": { "hazard": "EXTREME", "hazard_code": 4, "risk": 8.0 }, "geometry": { "type": "LineString", "coordinates": [ [ 80.0371669, 29.7251682 ], [ 80.0371309, 29.7249868 ] ] } },
{ "type": "Feature", "properties": { "hazard": "EXTREME", "hazard_code": 4, "risk": 8.0 }, "geometry": { "type": "LineString", "coordinates": [ [ 80.0371473, 29.7252335 ], [ 80.0371669, 29.7251682 ] ] } },
{ "type": "Feature", "properties": { "hazard": "EXTREME", "hazard_code": 4, "risk": 8.0 }, "geometry": { "type": "LineString", "coordinates": [ [ 80.0370465, 29.7252826 ], [ 80.0371473, 29.7252335 ] ] } },
{ "type": "Feature", "properties": { "hazard": "EXTREME", "hazard_code": 4, "risk": 8.0 }, "geometry": { "type": "LineString", "coordinates": [ [ 80.0369065, 29.7252826 ], [ 80.0370465, 29.7252826 ] ] } },
{ "type": "Feature", "properties": { "hazard": "EXTREME", "hazard_code": 4, "risk": 8.0 }, "geometry": { "type": "LineString", "coordinates": [ [ 80.0366701, 29.7252895 ], [ 80.0369065, 29.7252826 ] ] } },
{ "type": "Feature", "properties": { "hazard": "EXTREME", "hazard_code": 4, "risk": 8.0 }, "geometry": { "type": "LineString", "coordinates": [ [ 80.0364414, 29.7253344 ], [ 80.0366701, 29.7252895 ] ] } },
{ "type": "Feature", "properties": { "hazard": "EXTREME", "hazard_code": 4, "risk": 8.0 }, "geometry": { "type": "LineString", "coordinates": [ [ 80.0362953, 29.7253461 ], [ 80.0364414, 29.7253344 ] ] } },
{ "type": "Feature", "properties": { "hazard": "EXTREME", "hazard_code": 4, "risk": 8.0 }, "geometry": { "type": "LineString", "coordinates": [ [ 80.0361286, 29.7253639 ], [ 80.0362953, 29.7253461 ] ] } },
{ "type": "Feature", "properties": { "hazard": "EXTREME", "hazard_code": 4, "risk": 8.0 }, "geometry": { "type": "LineString", "coordinates": [ [ 80.0360421, 29.7254023 ], [ 80.0361286, 29.7253639 ] ] } },
{ "type": "Feature", "properties": { "hazard": "EXTREME", "hazard_code": 4, "risk": 8.0 }, "geometry": { "type": "LineString", "coordinates": [ [ 80.036, 29.725481 ], [ 80.0360421, 29.7254023 ] ] } },
{ "type": "Feature", "properties": { "hazard": "EXTREME", "hazard_code": 4, "risk": 8.0 }, "geometry": { "type": "LineString", "coordinates": [ [ 80.0360103, 29.7255605 ], [ 80.036, 29.725481 ] ] } },
{ "type": "Feature", "properties": { "hazard": "EXTREME", "hazard_code": 4, "risk": 8.0 }, "geometry": { "type": "LineString", "coordinates": [ [ 80.0360978, 29.7256423 ], [ 80.0360103, 29.7255605 ] ] } },
{ "type": "Feature", "properties": { "hazard": "EXTREME", "hazard_code": 4, "risk": 8.0 }, "geometry": { "type": "LineString", "coordinates": [ [ 80.0361903, 29.7257089 ], [ 80.0360978, 29.7256423 ] ] } },
{ "type": "Feature", "properties": { "hazard": "EXTREME", "hazard_code": 4, "risk": 8.0 }, "geometry": { "type": "LineString", "coordinates": [ [ 80.03632, 29.7258134 ], [ 80.0361903, 29.7257089 ] ] } },
{ "type": "Feature", "properties": { "hazard": "EXTREME", "hazard_code": 4, "risk": 8.0 }, "geometry": { "type": "LineString", "coordinates": [ [ 80.0363714, 29.7259251 ], [ 80.03632, 29.7258134 ] ] } },
{ "type": "Feature", "properties": { "hazard": "EXTREME", "hazard_code": 4, "risk": 8.0 }, "geometry": { "type": "LineString", "coordinates": [ [ 80.0363756, 29.7260306 ], [ 80.0363714, 29.7259251 ] ] } },
{ "type": "Feature", "properties": { "hazard": "EXTREME", "hazard_code": 4, "risk": 8.0 }, "geometry": { "type": "LineString", "coordinates": [ [ 80.0365649, 29.7237107 ], [ 80.0365731, 29.723608 ] ] } },
{ "type": "Feature", "properties": { "hazard": "EXTREME", "hazard_code": 4, "risk": 8.0 }, "geometry": { "type": "LineString", "coordinates": [ [ 80.0365886, 29.7237965 ], [ 80.0365649, 29.7237107 ] ] } },
{ "type": "Feature", "properties": { "hazard": "EXTREME", "hazard_code": 4, "risk": 8.0 }, "geometry": { "type": "LineString", "coordinates": [ [ 80.036676, 29.7239109 ], [ 80.0365886, 29.7237965 ] ] } },
{ "type": "Feature", "properties": { "hazard": "EXTREME", "hazard_code": 4, "risk": 8.0 }, "geometry": { "type": "LineString", "coordinates": [ [ 80.0367347, 29.7239976 ], [ 80.036676, 29.7239109 ] ] } },
{ "type": "Feature", "properties": { "hazard": "EXTREME", "hazard_code": 4, "risk": 8.0 }, "geometry": { "type": "LineString", "coordinates": [ [ 80.0367481, 29.72407 ], [ 80.0367347, 29.7239976 ] ] } },
{ "type": "Feature", "properties": { "hazard": "EXTREME", "hazard_code": 4, "risk": 8.0 }, "geometry": { "type": "LineString", "coordinates": [ [ 80.0367264, 29.7241441 ], [ 80.0367481, 29.72407 ] ] } },
{ "type": "Feature", "properties": { "hazard": "EXTREME", "hazard_code": 4, "risk": 8.0 }, "geometry": { "type": "LineString", "coordinates": [ [ 80.0365947, 29.7243291 ], [ 80.0367264, 29.7241441 ] ] } },
{ "type": "Feature", "properties": { "hazard": "EXTREME", "hazard_code": 4, "risk": 8.0 }, "geometry": { "type": "LineString", "coordinates": [ [ 80.0365597, 29.7244015 ], [ 80.0365947, 29.7243291 ] ] } },
{ "type": "Feature", "properties": { "hazard": "EXTREME", "hazard_code": 4, "risk": 8.0 }, "geometry": { "type": "LineString", "coordinates": [ [ 80.0365577, 29.7244864 ], [ 80.0365597, 29.7244015 ] ] } },
{ "type": "Feature", "properties": { "hazard": "EXTREME", "hazard_code": 4, "risk": 8.0 }, "geometry": { "type": "LineString", "coordinates": [ [ 80.0365968, 29.724548 ], [ 80.0365577, 29.7244864 ] ] } },
{ "type": "Feature", "properties": { "hazard": "EXTREME", "hazard_code": 4, "risk": 8.0 }, "geometry": { "type": "LineString", "coordinates": [ [ 80.0366843, 29.7246079 ], [ 80.0365968, 29.724548 ] ] } },
{ "type": "Feature", "properties": { "hazard": "EXTREME", "hazard_code": 4, "risk": 8.0 }, "geometry": { "type": "LineString", "coordinates": [ [ 80.0369168, 29.7246785 ], [ 80.0366843, 29.7246079 ] ] } },
{ "type": "Feature", "properties": { "hazard": "EXTREME", "hazard_code": 4, "risk": 8.0 }, "geometry": { "type": "LineString", "coordinates": [ [ 80.037029, 29.7247375 ], [ 80.0369168, 29.7246785 ] ] } },
{ "type": "Feature", "properties": { "hazard": "EXTREME", "hazard_code": 4, "risk": 8.0 }, "geometry": { "type": "LineString", "coordinates": [ [ 80.0370845, 29.7247822 ], [ 80.037029, 29.7247375 ] ] } },
{ "type": "Feature", "properties": { "hazard": "EXTREME", "hazard_code": 4, "risk": 8.0 }, "geometry": { "type": "LineString", "coordinates": [ [ 80.0371298, 29.7248778 ], [ 80.0370845, 29.7247822 ] ] } },
{ "type": "Feature", "properties": { "hazard": "EXTREME", "hazard_code": 4, "risk": 8.0 }, "geometry": { "type": "LineString", "coordinates": [ [ 80.0371309, 29.7249868 ], [ 80.0371298, 29.7248778 ] ] } },
{ "type": "Feature", "properties": { "hazard": "EXTREME", "hazard_code": 4, "risk": 8.0 }, "geometry": { "type": "LineString", "coordinates": [ [ 80.035613, 29.7225195 ], [ 80.0355637, 29.7224998 ] ] } },
{ "type": "Feature", "properties": { "hazard": "EXTREME", "hazard_code": 4, "risk": 8.0 }, "geometry": { "type": "LineString", "coordinates": [ [ 80.0356902, 29.7225159 ], [ 80.035613, 29.7225195 ] ] } },
{ "type": "Feature", "properties": { "hazard": "EXTREME", "hazard_code": 4, "risk": 8.0 }, "geometry": { "type": "LineString", "coordinates": [ [ 80.0357911, 29.7224561 ], [ 80.0356902, 29.7225159 ] ] } },
{ "type": "Feature", "properties": { "hazard": "EXTREME", "hazard_code": 4, "risk": 8.0 }, "geometry": { "type": "LineString", "coordinates": [ [ 80.0359506, 29.722398 ], [ 80.0357911, 29.7224561 ] ] } },
{ "type": "Feature", "properties": { "hazard": "EXTREME", "hazard_code": 4, "risk": 8.0 }, "geometry": { "type": "LineString", "coordinates": [ [ 80.036038, 29.7223935 ], [ 80.0359506, 29.722398 ] ] } },
{ "type": "Feature", "properties": { "hazard": "EXTREME", "hazard_code": 4, "risk": 8.0 }, "geometry": { "type": "LineString", "coordinates": [ [ 80.0361152, 29.7224141 ], [ 80.036038, 29.7223935 ] ] } },
{ "type": "Feature", "properties": { "hazard": "EXTREME", "hazard_code": 4, "risk": 8.0 }, "geometry": { "type": "LineString", "coordinates": [ [ 80.0364939, 29.7225713 ], [ 80.0361152, 29.7224141 ] ] } },
{ "type": "Feature", "properties": { "hazard": "EXTREME", "hazard_code": 4, "risk": 8.0 }, "geometry": { "type": "LineString", "coordinates": [ [ 80.0365567, 29.7226384 ], [ 80.0364939, 29.7225713 ] ] } },
{ "type": "Feature", "properties": { "hazard": "EXTREME", "hazard_code": 4, "risk": 8.0 }, "geometry": { "type": "LineString", "coordinates": [ [ 80.0366287, 29.7227831 ], [ 80.0365567, 29.7226384 ] ] } },
{ "type": "Feature", "properties": { "hazard": "EXTREME", "hazard_code": 4, "risk": 8.0 }, "geometry": { "type": "LineString", "coordinates": [ [ 80.0367038, 29.722893 ], [ 80.0366287, 29.7227831 ] ] } },
{ "type": "Feature", "properties": { "hazard": "EXTREME", "hazard_code": 4, "risk": 8.0 }, "geometry": { "type": "LineString", "coordinates": [ [ 80.0367872, 29.722961 ], [ 80.0367038, 29.722893 ] ] } },
{ "type": "Feature", "properties": { "hazard": "EXTREME", "hazard_code": 4, "risk": 8.0 }, "geometry": { "type": "LineString", "coordinates": [ [ 80.0368242, 29.723028 ], [ 80.0367872, 29.722961 ] ] } },
{ "type": "Feature", "properties": { "hazard": "EXTREME", "hazard_code": 4, "risk": 8.0 }, "geometry": { "type": "LineString", "coordinates": [ [ 80.0368221, 29.7231039 ], [ 80.0368242, 29.723028 ] ] } },
{ "type": "Feature", "properties": { "hazard": "EXTREME", "hazard_code": 4, "risk": 8.0 }, "geometry": { "type": "LineString", "coordinates": [ [ 80.0367944, 29.723196 ], [ 80.0368221, 29.7231039 ] ] } },
{ "type": "Feature", "properties": { "hazard": "EXTREME", "hazard_code": 4, "risk": 8.0 }, "geometry": { "type": "LineString", "coordinates": [ [ 80.0366997, 29.7233345 ], [ 80.0367944, 29.723196 ] ] } },
{ "type": "Feature", "properties": { "hazard": "EXTREME", "hazard_code": 4, "risk": 8.0 }, "geometry": { "type": "LineString", "coordinates": [ [ 80.0365731, 29.723608 ], [ 80.0366997, 29.7233345 ] ] } },
{ "type": "Feature", "properties": { "hazard": "EXTREME", "hazard_code": 4, "risk": 8.0 }, "geometry": { "type": "LineString", "coordinates": [ [ 79.8371449, 29.7963802 ], [ 79.8371717, 29.7962405 ] ] } },
{ "type": "Feature", "properties": { "hazard": "EXTREME", "hazard_code": 4, "risk": 8.0 }, "geometry": { "type": "LineString", "coordinates": [ [ 79.8371315, 29.7964779 ], [ 79.8371449, 29.7963802 ] ] } },
{ "type": "Feature", "properties": { "hazard": "EXTREME", "hazard_code": 4, "risk": 8.0 }, "geometry": { "type": "LineString", "coordinates": [ [ 79.8370779, 29.7965873 ], [ 79.8371315, 29.7964779 ] ] } },
{ "type": "Feature", "properties": { "hazard": "EXTREME", "hazard_code": 4, "risk": 8.0 }, "geometry": { "type": "LineString", "coordinates": [ [ 79.8369572, 29.7966502 ], [ 79.8370779, 29.7965873 ] ] } },
{ "type": "Feature", "properties": { "hazard": "EXTREME", "hazard_code": 4, "risk": 8.0 }, "geometry": { "type": "LineString", "coordinates": [ [ 79.8368391, 29.7966572 ], [ 79.8369572, 29.7966502 ] ] } },
{ "type": "Feature", "properties": { "hazard": "EXTREME", "hazard_code": 4, "risk": 8.0 }, "geometry": { "type": "LineString", "coordinates": [ [ 79.8366997, 29.7965873 ], [ 79.8368391, 29.7966572 ] ] } },
{ "type": "Feature", "properties": { "hazard": "EXTREME", "hazard_code": 4, "risk": 8.0 }, "geometry": { "type": "LineString", "coordinates": [ [ 79.8364636, 29.7963918 ], [ 79.8366997, 29.7965873 ] ] } },
{ "type": "Feature", "properties": { "hazard": "EXTREME", "hazard_code": 4, "risk": 8.0 }, "geometry": { "type": "LineString", "coordinates": [ [ 79.8362276, 29.7961521 ], [ 79.8364636, 29.7963918 ] ] } },
{ "type": "Feature", "properties": { "hazard": "EXTREME", "hazard_code": 4, "risk": 8.0 }, "geometry": { "type": "LineString", "coordinates": [ [ 79.8360372, 29.7958635 ], [ 79.8362276, 29.7961521 ] ] } },
{ "type": "Feature", "properties": { "hazard": "EXTREME", "hazard_code": 4, "risk": 8.0 }, "geometry": { "type": "LineString", "coordinates": [ [ 79.8357609, 29.795498 ], [ 79.8360372, 29.7958635 ] ] } },
{ "type": "Feature", "properties": { "hazard": "EXTREME", "hazard_code": 4, "risk": 8.0 }, "geometry": { "type": "LineString", "coordinates": [ [ 79.835616, 29.7953002 ], [ 79.8357609, 29.795498 ] ] } },
{ "type": "Feature", "properties": { "hazard": "EXTREME", "hazard_code": 4, "risk": 8.0 }, "geometry": { "type": "LineString", "coordinates": [ [ 79.8355061, 29.7950534 ], [ 79.835616, 29.7953002 ] ] } },
{ "type": "Feature", "properties": { "hazard": "EXTREME", "hazard_code": 4, "risk": 8.0 }, "geometry": { "type": "LineString", "coordinates": [ [ 79.8353666, 29.7949394 ], [ 79.8355061, 29.7950534 ] ] } },
{ "type": "Feature", "properties": { "hazard": "EXTREME", "hazard_code": 4, "risk": 8.0 }, "geometry": { "type": "LineString", "coordinates": [ [ 79.8350501, 29.7947974 ], [ 79.8353666, 29.7949394 ] ] } },
{ "type": "Feature", "properties": { "hazard": "EXTREME", "hazard_code": 4, "risk": 8.0 }, "geometry": { "type": "LineString", "coordinates": [ [ 80.0355297, 29.7224587 ], [ 80.0354937, 29.7223363 ] ] } },
{ "type": "Feature", "properties": { "hazard": "EXTREME", "hazard_code": 4, "risk": 8.0 }, "geometry": { "type": "LineString", "coordinates": [ [ 80.0355637, 29.7224998 ], [ 80.0355297, 29.7224587 ] ] } },
{ "type": "Feature", "properties": { "hazard": "EXTREME", "hazard_code": 4, "risk": 8.0 }, "geometry": { "type": "LineString", "coordinates": [ [ 79.8388186, 29.7952746 ], [ 79.8389956, 29.7952815 ] ] } },
{ "type": "Feature", "properties": { "hazard": "EXTREME", "hazard_code": 4, "risk": 8.0 }, "geometry": { "type": "LineString", "coordinates": [ [ 79.8385477, 29.7953328 ], [ 79.8388186, 29.7952746 ] ] } },
{ "type": "Feature", "properties": { "hazard": "EXTREME", "hazard_code": 4, "risk": 8.0 }, "geometry": { "type": "LineString", "coordinates": [ [ 79.8384136, 29.7954259 ], [ 79.8385477, 29.7953328 ] ] } },
{ "type": "Feature", "properties": { "hazard": "EXTREME", "hazard_code": 4, "risk": 8.0 }, "geometry": { "type": "LineString", "coordinates": [ [ 79.8383787, 29.7955259 ], [ 79.8384136, 29.7954259 ] ] } },
{ "type": "Feature", "properties": { "hazard": "EXTREME", "hazard_code": 4, "risk": 8.0 }, "geometry": { "type": "LineString", "coordinates": [ [ 79.8383734, 29.7956656 ], [ 79.8383787, 29.7955259 ] ] } },
{ "type": "Feature", "properties": { "hazard": "EXTREME", "hazard_code": 4, "risk": 8.0 }, "geometry": { "type": "LineString", "coordinates": [ [ 79.8383868, 29.7958541 ], [ 79.8383734, 29.7956656 ] ] } },
{ "type": "Feature", "properties": { "hazard": "EXTREME", "hazard_code": 4, "risk": 8.0 }, "geometry": { "type": "LineString", "coordinates": [ [ 79.8383144, 29.7959193 ], [ 79.8383868, 29.7958541 ] ] } },
{ "type": "Feature", "properties": { "hazard": "EXTREME", "hazard_code": 4, "risk": 8.0 }, "geometry": { "type": "LineString", "coordinates": [ [ 79.838089, 29.7959682 ], [ 79.8383144, 29.7959193 ] ] } },
{ "type": "Feature", "properties": { "hazard": "EXTREME", "hazard_code": 4, "risk": 8.0 }, "geometry": { "type": "LineString", "coordinates": [ [ 79.8378852, 29.7959519 ], [ 79.838089, 29.7959682 ] ] } },
{ "type": "Feature", "properties": { "hazard": "EXTREME", "hazard_code": 4, "risk": 8.0 }, "geometry": { "type": "LineString", "coordinates": [ [ 79.8377886, 29.7959123 ], [ 79.8378852, 29.7959519 ] ] } },
{ "type": "Feature", "properties": { "hazard": "EXTREME", "hazard_code": 4, "risk": 8.0 }, "geometry": { "type": "LineString", "coordinates": [ [ 79.8376492, 29.7959007 ], [ 79.8377886, 29.7959123 ] ] } },
{ "type": "Feature", "properties": { "hazard": "EXTREME", "hazard_code": 4, "risk": 8.0 }, "geometry": { "type": "LineString", "coordinates": [ [ 79.8374775, 29.795917 ], [ 79.8376492, 29.7959007 ] ] } },
{ "type": "Feature", "properties": { "hazard": "EXTREME", "hazard_code": 4, "risk": 8.0 }, "geometry": { "type": "LineString", "coordinates": [ [ 79.8372871, 29.7959705 ], [ 79.8374775, 29.795917 ] ] } },
{ "type": "Feature", "properties": { "hazard": "EXTREME", "hazard_code": 4, "risk": 8.0 }, "geometry": { "type": "LineString", "coordinates": [ [ 79.8372388, 29.7960334 ], [ 79.8372871, 29.7959705 ] ] } },
{ "type": "Feature", "properties": { "hazard": "EXTREME", "hazard_code": 4, "risk": 8.0 }, "geometry": { "type": "LineString", "coordinates": [ [ 79.8372012, 29.7961358 ], [ 79.8372388, 29.7960334 ] ] } },
{ "type": "Feature", "properties": { "hazard": "EXTREME", "hazard_code": 4, "risk": 8.0 }, "geometry": { "type": "LineString", "coordinates": [ [ 79.8371717, 29.7962405 ], [ 79.8372012, 29.7961358 ] ] } },
{ "type": "Feature", "properties": { "hazard": "EXTREME", "hazard_code": 4, "risk": 8.0 }, "geometry": { "type": "LineString", "coordinates": [ [ 79.8407337, 29.7955818 ], [ 79.8409, 29.7957378 ] ] } },
{ "type": "Feature", "properties": { "hazard": "EXTREME", "hazard_code": 4, "risk": 8.0 }, "geometry": { "type": "LineString", "coordinates": [ [ 79.8406211, 29.7955259 ], [ 79.8407337, 29.7955818 ] ] } },
{ "type": "Feature", "properties": { "hazard": "EXTREME", "hazard_code": 4, "risk": 8.0 }, "geometry": { "type": "LineString", "coordinates": [ [ 79.8404762, 29.795498 ], [ 79.8406211, 29.7955259 ] ] } },
{ "type": "Feature", "properties": { "hazard": "EXTREME", "hazard_code": 4, "risk": 8.0 }, "geometry": { "type": "LineString", "coordinates": [ [ 79.8403555, 29.7954282 ], [ 79.8404762, 29.795498 ] ] } },
{ "type": "Feature", "properties": { "hazard": "EXTREME", "hazard_code": 4, "risk": 8.0 }, "geometry": { "type": "LineString", "coordinates": [ [ 79.8403019, 29.795377 ], [ 79.8403555, 29.7954282 ] ] } },
{ "type": "Feature", "properties": { "hazard": "EXTREME", "hazard_code": 4, "risk": 8.0 }, "geometry": { "type": "LineString", "coordinates": [ [ 79.8402348, 29.7952862 ], [ 79.8403019, 29.795377 ] ] } },
{ "type": "Feature", "properties": { "hazard": "EXTREME", "hazard_code": 4, "risk": 8.0 }, "geometry": { "type": "LineString", "coordinates": [ [ 79.840157, 29.7952303 ], [ 79.8402348, 29.7952862 ] ] } },
{ "type": "Feature", "properties": { "hazard": "EXTREME", "hazard_code": 4, "risk": 8.0 }, "geometry": { "type": "LineString", "coordinates": [ [ 79.8400578, 29.7952024 ], [ 79.840157, 29.7952303 ] ] } },
{ "type": "Feature", "properties": { "hazard": "EXTREME", "hazard_code": 4, "risk": 8.0 }, "geometry": { "type": "LineString", "coordinates": [ [ 79.8399532, 29.7951908 ], [ 79.8400578, 29.7952024 ] ] } },
{ "type": "Feature", "properties": { "hazard": "EXTREME", "hazard_code": 4, "risk": 8.0 }, "geometry": { "type": "LineString", "coordinates": [ [ 79.8398593, 29.7951861 ], [ 79.8399532, 29.7951908 ] ] } },
{ "type": "Feature", "properties": { "hazard": "EXTREME", "hazard_code": 4, "risk": 8.0 }, "geometry": { "type": "LineString", "coordinates": [ [ 79.8396984, 29.795114 ], [ 79.8398593, 29.7951861 ] ] } },
{ "type": "Feature", "properties": { "hazard": "EXTREME", "hazard_code": 4, "risk": 8.0 }, "geometry": { "type": "LineString", "coordinates": [ [ 79.8395213, 29.7950604 ], [ 79.8396984, 29.795114 ] ] } },
{ "type": "Feature", "properties": { "hazard": "EXTREME", "hazard_code": 4, "risk": 8.0 }, "geometry": { "type": "LineString", "coordinates": [ [ 79.8394623, 29.7950814 ], [ 79.8395213, 29.7950604 ] ] } },
{ "type": "Feature", "properties": { "hazard": "EXTREME", "hazard_code": 4, "risk": 8.0 }, "geometry": { "type": "LineString", "coordinates": [ [ 79.8393524, 29.7951675 ], [ 79.8394623, 29.7950814 ] ] } },
{ "type": "Feature", "properties": { "hazard": "EXTREME", "hazard_code": 4, "risk": 8.0 }, "geometry": { "type": "LineString", "coordinates": [ [ 79.8391914, 29.7952652 ], [ 79.8393524, 29.7951675 ] ] } },
{ "type": "Feature", "properties": { "hazard": "EXTREME", "hazard_code": 4, "risk": 8.0 }, "geometry": { "type": "LineString", "coordinates": [ [ 79.8389956, 29.7952815 ], [ 79.8391914, 29.7952652 ] ] } },
{ "type": "Feature", "properties": { "hazard": "EXTREME", "hazard_code": 4, "risk": 8.0 }, "geometry": { "type": "LineString", "coordinates": [ [ 79.8425415, 29.7970529 ], [ 79.8425683, 29.7969947 ] ] } },
{ "type": "Feature", "properties": { "hazard": "EXTREME", "hazard_code": 4, "risk": 8.0 }, "geometry": { "type": "LineString", "coordinates": [ [ 79.8423725, 29.797011 ], [ 79.8425415, 29.7970529 ] ] } },
{ "type": "Feature", "properties": { "hazard": "EXTREME", "hazard_code": 4, "risk": 8.0 }, "geometry": { "type": "LineString", "coordinates": [ [ 79.8422813, 29.7968806 ], [ 79.8423725, 29.797011 ] ] } },
{ "type": "Feature", "properties": { "hazard": "EXTREME", "hazard_code": 4, "risk": 8.0 }, "geometry": { "type": "LineString", "coordinates": [ [ 79.8422492, 29.7967782 ], [ 79.8422813, 29.7968806 ] ] } },
{ "type": "Feature", "properties": { "hazard": "EXTREME", "hazard_code": 4, "risk": 8.0 }, "geometry": { "type": "LineString", "coordinates": [ [ 79.8421875, 29.7966199 ], [ 79.8422492, 29.7967782 ] ] } },
{ "type": "Feature", "properties": { "hazard": "EXTREME", "hazard_code": 4, "risk": 8.0 }, "geometry": { "type": "LineString", "coordinates": [ [ 79.8420212, 29.7965594 ], [ 79.8421875, 29.7966199 ] ] } },
{ "type": "Feature", "properties": { "hazard": "EXTREME", "hazard_code": 4, "risk": 8.0 }, "geometry": { "type": "LineString", "coordinates": [ [ 79.8418656, 29.7965687 ], [ 79.8420212, 29.7965594 ] ] } },
{ "type": "Feature", "properties": { "hazard": "EXTREME", "hazard_code": 4, "risk": 8.0 }, "geometry": { "type": "LineString", "coordinates": [ [ 79.8417422, 29.796606 ], [ 79.8418656, 29.7965687 ] ] } },
{ "type": "Feature", "properties": { "hazard": "EXTREME", "hazard_code": 4, "risk": 8.0 }, "geometry": { "type": "LineString", "coordinates": [ [ 79.8416135, 29.7965804 ], [ 79.8417422, 29.796606 ] ] } },
{ "type": "Feature", "properties": { "hazard": "EXTREME", "hazard_code": 4, "risk": 8.0 }, "geometry": { "type": "LineString", "coordinates": [ [ 79.841364, 29.7963965 ], [ 79.8416135, 29.7965804 ] ] } },
{ "type": "Feature", "properties": { "hazard": "EXTREME", "hazard_code": 4, "risk": 8.0 }, "geometry": { "type": "LineString", "coordinates": [ [ 79.8412782, 29.7963243 ], [ 79.841364, 29.7963965 ] ] } },
{ "type": "Feature", "properties": { "hazard": "EXTREME", "hazard_code": 4, "risk": 8.0 }, "geometry": { "type": "LineString", "coordinates": [ [ 79.8412085, 29.796194 ], [ 79.8412782, 29.7963243 ] ] } },
{ "type": "Feature", "properties": { "hazard": "EXTREME", "hazard_code": 4, "risk": 8.0 }, "geometry": { "type": "LineString", "coordinates": [ [ 79.8410609, 29.7960706 ], [ 79.8412085, 29.796194 ] ] } },
{ "type": "Feature", "properties": { "hazard": "EXTREME", "hazard_code": 4, "risk": 8.0 }, "geometry": { "type": "LineString", "coordinates": [ [ 79.8409966, 29.7960008 ], [ 79.8410609, 29.7960706 ] ] } },
{ "type": "Feature", "properties": { "hazard": "EXTREME", "hazard_code": 4, "risk": 8.0 }, "geometry": { "type": "LineString", "coordinates": [ [ 79.8409697, 29.7959123 ], [ 79.8409966, 29.7960008 ] ] } },
{ "type": "Feature", "properties": { "hazard": "EXTREME", "hazard_code": 4, "risk": 8.0 }, "geometry": { "type": "LineString", "coordinates": [ [ 79.8409, 29.7957378 ], [ 79.8409697, 29.7959123 ] ] } },
{ "type": "Feature", "properties": { "hazard": "EXTREME", "hazard_code": 4, "risk": 8.0 }, "geometry": { "type": "LineString", "coordinates": [ [ 79.8441267, 29.7965548 ], [ 79.8441857, 29.7966036 ] ] } },
{ "type": "Feature", "properties": { "hazard": "EXTREME", "hazard_code": 4, "risk": 8.0 }, "geometry": { "type": "LineString", "coordinates": [ [ 79.8439524, 29.7964849 ], [ 79.8441267, 29.7965548 ] ] } },
{ "type": "Feature", "properties": { "hazard": "EXTREME", "hazard_code": 4, "risk": 8.0 }, "geometry": { "type": "LineString", "coordinates": [ [ 79.8438129, 29.7964523 ], [ 79.8439524, 29.7964849 ] ] } },
{ "type": "Feature", "properties": { "hazard": "EXTREME", "hazard_code": 4, "risk": 8.0 }, "geometry": { "type": "LineString", "coordinates": [ [ 79.8436251, 29.796336 ], [ 79.8438129, 29.7964523 ] ] } },
{ "type": "Feature", "properties": { "hazard": "EXTREME", "hazard_code": 4, "risk": 8.0 }, "geometry": { "type": "LineString", "coordinates": [ [ 79.8434857, 29.7962103 ], [ 79.8436251, 29.796336 ] ] } },
{ "type": "Feature", "properties": { "hazard": "EXTREME", "hazard_code": 4, "risk": 8.0 }, "geometry": { "type": "LineString", "coordinates": [ [ 79.843432, 29.7960124 ], [ 79.8434857, 29.7962103 ] ] } },
{ "type": "Feature", "properties": { "hazard": "EXTREME", "hazard_code": 4, "risk": 8.0 }, "geometry": { "type": "LineString", "coordinates": [ [ 79.843263, 29.7959728 ], [ 79.843432, 29.7960124 ] ] } },
{ "type": "Feature", "properties": { "hazard": "EXTREME", "hazard_code": 4, "risk": 8.0 }, "geometry": { "type": "LineString", "coordinates": [ [ 79.8432255, 29.7960217 ], [ 79.843263, 29.7959728 ] ] } },
{ "type": "Feature", "properties": { "hazard": "EXTREME", "hazard_code": 4, "risk": 8.0 }, "geometry": { "type": "LineString", "coordinates": [ [ 79.8430082, 29.7962522 ], [ 79.8432255, 29.7960217 ] ] } },
{ "type": "Feature", "properties": { "hazard": "EXTREME", "hazard_code": 4, "risk": 8.0 }, "geometry": { "type": "LineString", "coordinates": [ [ 79.8428875, 29.7964011 ], [ 79.8430082, 29.7962522 ] ] } },
{ "type": "Feature", "properties": { "hazard": "EXTREME", "hazard_code": 4, "risk": 8.0 }, "geometry": { "type": "LineString", "coordinates": [ [ 79.8428419, 29.7964966 ], [ 79.8428875, 29.7964011 ] ] } },
{ "type": "Feature", "properties": { "hazard": "EXTREME", "hazard_code": 4, "risk": 8.0 }, "geometry": { "type": "LineString", "coordinates": [ [ 79.842791, 29.7966199 ], [ 79.8428419, 29.7964966 ] ] } },
{ "type": "Feature", "properties": { "hazard": "EXTREME", "hazard_code": 4, "risk": 8.0 }, "geometry": { "type": "LineString", "coordinates": [ [ 79.8427132, 29.7966851 ], [ 79.842791, 29.7966199 ] ] } },
{ "type": "Feature", "properties": { "hazard": "EXTREME", "hazard_code": 4, "risk": 8.0 }, "geometry": { "type": "LineString", "coordinates": [ [ 79.8426542, 29.7967875 ], [ 79.8427132, 29.7966851 ] ] } },
{ "type": "Feature", "properties": { "hazard": "EXTREME", "hazard_code": 4, "risk": 8.0 }, "geometry": { "type": "LineString", "coordinates": [ [ 79.8426059, 29.7968667 ], [ 79.8426542, 29.7967875 ] ] } },
{ "type": "Feature", "properties": { "hazard": "EXTREME", "hazard_code": 4, "risk": 8.0 }, "geometry": { "type": "LineString", "coordinates": [ [ 79.8425683, 29.7969947 ], [ 79.8426059, 29.7968667 ] ] } },
{ "type": "Feature", "properties": { "hazard": "EXTREME", "hazard_code": 4, "risk": 8.0 }, "geometry": { "type": "LineString", "coordinates": [ [ 79.847466, 29.7885312 ], [ 79.8475224, 29.7883985 ] ] } },
{ "type": "Feature", "properties": { "hazard": "EXTREME", "hazard_code": 4, "risk": 8.0 }, "geometry": { "type": "LineString", "coordinates": [ [ 79.8473132, 29.7885475 ], [ 79.847466, 29.7885312 ] ] } },
{ "type": "Feature", "properties": { "hazard": "EXTREME", "hazard_code": 4, "risk": 8.0 }, "geometry": { "type": "LineString", "coordinates": [ [ 79.8470691, 29.7884171 ], [ 79.8473132, 29.7885475 ] ] } },
{ "type": "Feature", "properties": { "hazard": "EXTREME", "hazard_code": 4, "risk": 8.0 }, "geometry": { "type": "LineString", "coordinates": [ [ 79.8468491, 29.7882123 ], [ 79.8470691, 29.7884171 ] ] } },
{ "type": "Feature", "properties": { "hazard": "EXTREME", "hazard_code": 4, "risk": 8.0 }, "geometry": { "type": "LineString", "coordinates": [ [ 79.8473963, 29.7867993 ], [ 79.8469511, 29.787749 ] ] } },
{ "type": "Feature", "properties": { "hazard": "EXTREME", "hazard_code": 4, "risk": 8.0 }, "geometry": { "type": "LineString", "coordinates": [ [ 79.8474446, 29.7866945 ], [ 79.8473963, 29.7867993 ] ] } },
{ "type": "Feature", "properties": { "hazard": "EXTREME", "hazard_code": 4, "risk": 8.0 }, "geometry": { "type": "LineString", "coordinates": [ [ 79.8472944, 29.7861614 ], [ 79.8474446, 29.7866945 ] ] } },
{ "type": "Feature", "properties": { "hazard": "EXTREME", "hazard_code": 4, "risk": 8.0 }, "geometry": { "type": "LineString", "coordinates": [ [ 79.8472971, 29.7859822 ], [ 79.8472944, 29.7861614 ] ] } },
{ "type": "Feature", "properties": { "hazard": "EXTREME", "hazard_code": 4, "risk": 8.0 }, "geometry": { "type": "LineString", "coordinates": [ [ 79.8474902, 29.7855585 ], [ 79.8472971, 29.7859822 ] ] } },
{ "type": "Feature", "properties": { "hazard": "EXTREME", "hazard_code": 4, "risk": 8.0 }, "geometry": { "type": "LineString", "coordinates": [ [ 79.8449072, 29.7973857 ], [ 79.845044, 29.7975952 ] ] } },
{ "type": "Feature", "properties": { "hazard": "EXTREME", "hazard_code": 4, "risk": 8.0 }, "geometry": { "type": "LineString", "coordinates": [ [ 79.8446846, 29.7970692 ], [ 79.8449072, 29.7973857 ] ] } },
{ "type": "Feature", "properties": { "hazard": "EXTREME", "hazard_code": 4, "risk": 8.0 }, "geometry": { "type": "LineString", "coordinates": [ [ 79.8446041, 29.7969784 ], [ 79.8446846, 29.7970692 ] ] } },
{ "type": "Feature", "properties": { "hazard": "EXTREME", "hazard_code": 4, "risk": 8.0 }, "geometry": { "type": "LineString", "coordinates": [ [ 79.8445451, 29.7968853 ], [ 79.8446041, 29.7969784 ] ] } },
{ "type": "Feature", "properties": { "hazard": "EXTREME", "hazard_code": 4, "risk": 8.0 }, "geometry": { "type": "LineString", "coordinates": [ [ 79.8444056, 29.7968108 ], [ 79.8445451, 29.7968853 ] ] } },
{ "type": "Feature", "properties": { "hazard": "EXTREME", "hazard_code": 4, "risk": 8.0 }, "geometry": { "type": "LineString", "coordinates": [ [ 79.8443037, 29.7967642 ], [ 79.8444056, 29.7968108 ] ] } },
{ "type": "Feature", "properties": { "hazard": "EXTREME", "hazard_code": 4, "risk": 8.0 }, "geometry": { "type": "LineString", "coordinates": [ [ 79.8441857, 29.7966036 ], [ 79.8443037, 29.7967642 ] ] } },
{ "type": "Feature", "properties": { "hazard": "EXTREME", "hazard_code": 4, "risk": 8.0 }, "geometry": { "type": "LineString", "coordinates": [ [ 78.6007293, 30.8104253 ], [ 78.6008259, 30.8105589 ] ] } },
{ "type": "Feature", "properties": { "hazard": "EXTREME", "hazard_code": 4, "risk": 8.0 }, "geometry": { "type": "LineString", "coordinates": [ [ 78.6006811, 30.8102917 ], [ 78.6007293, 30.8104253 ] ] } },
{ "type": "Feature", "properties": { "hazard": "EXTREME", "hazard_code": 4, "risk": 8.0 }, "geometry": { "type": "LineString", "coordinates": [ [ 78.6006972, 30.8101581 ], [ 78.6006811, 30.8102917 ] ] } },
{ "type": "Feature", "properties": { "hazard": "EXTREME", "hazard_code": 4, "risk": 8.0 }, "geometry": { "type": "LineString", "coordinates": [ [ 78.6006864, 30.8100245 ], [ 78.6006972, 30.8101581 ] ] } },
{ "type": "Feature", "properties": { "hazard": "EXTREME", "hazard_code": 4, "risk": 8.0 }, "geometry": { "type": "LineString", "coordinates": [ [ 79.8501429, 29.7856819 ], [ 79.8508269, 29.7852256 ] ] } },
{ "type": "Feature", "properties": { "hazard": "EXTREME", "hazard_code": 4, "risk": 8.0 }, "geometry": { "type": "LineString", "coordinates": [ [ 79.8500624, 29.7857564 ], [ 79.8501429, 29.7856819 ] ] } },
{ "type": "Feature", "properties": { "hazard": "EXTREME", "hazard_code": 4, "risk": 8.0 }, "geometry": { "type": "LineString", "coordinates": [ [ 79.8499927, 29.7857634 ], [ 79.8500624, 29.7857564 ] ] } },
{ "type": "Feature", "properties": { "hazard": "EXTREME", "hazard_code": 4, "risk": 8.0 }, "geometry": { "type": "LineString", "coordinates": [ [ 79.8499793, 29.7856866 ], [ 79.8499927, 29.7857634 ] ] } },
{ "type": "Feature", "properties": { "hazard": "EXTREME", "hazard_code": 4, "risk": 8.0 }, "geometry": { "type": "LineString", "coordinates": [ [ 79.8501053, 29.7855562 ], [ 79.8499793, 29.7856866 ] ] } },
{ "type": "Feature", "properties": { "hazard": "EXTREME", "hazard_code": 4, "risk": 8.0 }, "geometry": { "type": "LineString", "coordinates": [ [ 79.8481232, 29.7865502 ], [ 79.8483753, 29.7855585 ] ] } },
{ "type": "Feature", "properties": { "hazard": "EXTREME", "hazard_code": 4, "risk": 8.0 }, "geometry": { "type": "LineString", "coordinates": [ [ 79.847804, 29.7871857 ], [ 79.8481232, 29.7865502 ] ] } },
{ "type": "Feature", "properties": { "hazard": "EXTREME", "hazard_code": 4, "risk": 8.0 }, "geometry": { "type": "LineString", "coordinates": [ [ 79.8473078, 29.7875977 ], [ 79.847804, 29.7871857 ] ] } },
{ "type": "Feature", "properties": { "hazard": "EXTREME", "hazard_code": 4, "risk": 8.0 }, "geometry": { "type": "LineString", "coordinates": [ [ 79.8472327, 29.7878002 ], [ 79.8473078, 29.7875977 ] ] } },
{ "type": "Feature", "properties": { "hazard": "EXTREME", "hazard_code": 4, "risk": 8.0 }, "geometry": { "type": "LineString", "coordinates": [ [ 79.8472407, 29.7879655 ], [ 79.8472327, 29.7878002 ] ] } },
{ "type": "Feature", "properties": { "hazard": "EXTREME", "hazard_code": 4, "risk": 8.0 }, "geometry": { "type": "LineString", "coordinates": [ [ 79.8474875, 29.7882472 ], [ 79.8472407, 29.7879655 ] ] } },
{ "type": "Feature", "properties": { "hazard": "EXTREME", "hazard_code": 4, "risk": 8.0 }, "geometry": { "type": "LineString", "coordinates": [ [ 79.8475224, 29.7883985 ], [ 79.8474875, 29.7882472 ] ] } },
{ "type": "Feature", "properties": { "hazard": "EXTREME", "hazard_code": 4, "risk": 8.0 }, "geometry": { "type": "LineString", "coordinates": [ [ 78.6021401, 30.8135484 ], [ 78.602242, 30.8135576 ] ] } },
{ "type": "Feature", "properties": { "hazard": "EXTREME", "hazard_code": 4, "risk": 8.0 }, "geometry": { "type": "LineString", "coordinates": [ [ 78.6020918, 30.8134885 ], [ 78.6021401, 30.8135484 ] ] } },
{ "type": "Feature", "properties": { "hazard": "EXTREME", "hazard_code": 4, "risk": 8.0 }, "geometry": { "type": "LineString", "coordinates": [ [ 78.6019845, 30.8131062 ], [ 78.6020918, 30.8134885 ] ] } },
{ "type": "Feature", "properties": { "hazard": "EXTREME", "hazard_code": 4, "risk": 8.0 }, "geometry": { "type": "LineString", "coordinates": [ [ 78.601888, 30.8128344 ], [ 78.6019845, 30.8131062 ] ] } },
{ "type": "Feature", "properties": { "hazard": "EXTREME", "hazard_code": 4, "risk": 8.0 }, "geometry": { "type": "LineString", "coordinates": [ [ 78.6017002, 30.8125672 ], [ 78.601888, 30.8128344 ] ] } },
{ "type": "Feature", "properties": { "hazard": "EXTREME", "hazard_code": 4, "risk": 8.0 }, "geometry": { "type": "LineString", "coordinates": [ [ 78.6016734, 30.8125027 ], [ 78.6017002, 30.8125672 ] ] } },
{ "type": "Feature", "properties": { "hazard": "EXTREME", "hazard_code": 4, "risk": 8.0 }, "geometry": { "type": "LineString", "coordinates": [ [ 78.6016198, 30.812277 ], [ 78.6016734, 30.8125027 ] ] } },
{ "type": "Feature", "properties": { "hazard": "EXTREME", "hazard_code": 4, "risk": 8.0 }, "geometry": { "type": "LineString", "coordinates": [ [ 78.6015125, 30.8119592 ], [ 78.6016198, 30.812277 ] ] } },
{ "type": "Feature", "properties": { "hazard": "EXTREME", "hazard_code": 4, "risk": 8.0 }, "geometry": { "type": "LineString", "coordinates": [ [ 78.6013784, 30.8117565 ], [ 78.6015125, 30.8119592 ] ] } },
{ "type": "Feature", "properties": { "hazard": "EXTREME", "hazard_code": 4, "risk": 8.0 }, "geometry": { "type": "LineString", "coordinates": [ [ 78.6012711, 30.8116414 ], [ 78.6013784, 30.8117565 ] ] } },
{ "type": "Feature", "properties": { "hazard": "EXTREME", "hazard_code": 4, "risk": 8.0 }, "geometry": { "type": "LineString", "coordinates": [ [ 78.6011746, 30.8114847 ], [ 78.6012711, 30.8116414 ] ] } },
{ "type": "Feature", "properties": { "hazard": "EXTREME", "hazard_code": 4, "risk": 8.0 }, "geometry": { "type": "LineString", "coordinates": [ [ 78.6011585, 30.8114203 ], [ 78.6011746, 30.8114847 ] ] } },
{ "type": "Feature", "properties": { "hazard": "EXTREME", "hazard_code": 4, "risk": 8.0 }, "geometry": { "type": "LineString", "coordinates": [ [ 78.6011692, 30.8110103 ], [ 78.6011585, 30.8114203 ] ] } },
{ "type": "Feature", "properties": { "hazard": "EXTREME", "hazard_code": 4, "risk": 8.0 }, "geometry": { "type": "LineString", "coordinates": [ [ 78.601137, 30.8108306 ], [ 78.6011692, 30.8110103 ] ] } },
{ "type": "Feature", "properties": { "hazard": "EXTREME", "hazard_code": 4, "risk": 8.0 }, "geometry": { "type": "LineString", "coordinates": [ [ 78.6010673, 30.8107201 ], [ 78.601137, 30.8108306 ] ] } },
{ "type": "Feature", "properties": { "hazard": "EXTREME", "hazard_code": 4, "risk": 8.0 }, "geometry": { "type": "LineString", "coordinates": [ [ 78.6008259, 30.8105589 ], [ 78.6010673, 30.8107201 ] ] } },
{ "type": "Feature", "properties": { "hazard": "EXTREME", "hazard_code": 4, "risk": 8.0 }, "geometry": { "type": "LineString", "coordinates": [ [ 78.6062437, 30.8019389 ], [ 78.6064314, 30.8021507 ] ] } },
{ "type": "Feature", "properties": { "hazard": "EXTREME", "hazard_code": 4, "risk": 8.0 }, "geometry": { "type": "LineString", "coordinates": [ [ 78.6020755, 30.8108511 ], [ 78.602017, 30.8107768 ] ] } },
{ "type": "Feature", "properties": { "hazard": "EXTREME", "hazard_code": 4, "risk": 8.0 }, "geometry": { "type": "LineString", "coordinates": [ [ 78.6021035, 30.8110955 ], [ 78.6020755, 30.8108511 ] ] } },
{ "type": "Feature", "properties": { "hazard": "EXTREME", "hazard_code": 4, "risk": 8.0 }, "geometry": { "type": "LineString", "coordinates": [ [ 78.6021375, 30.8111927 ], [ 78.6021035, 30.8110955 ] ] } },
{ "type": "Feature", "properties": { "hazard": "EXTREME", "hazard_code": 4, "risk": 8.0 }, "geometry": { "type": "LineString", "coordinates": [ [ 78.6022016, 30.8113093 ], [ 78.6021375, 30.8111927 ] ] } },
{ "type": "Feature", "properties": { "hazard": "EXTREME", "hazard_code": 4, "risk": 8.0 }, "geometry": { "type": "LineString", "coordinates": [ [ 78.6022431, 30.8113677 ], [ 78.6022016, 30.8113093 ] ] } },
{ "type": "Feature", "properties": { "hazard": "EXTREME", "hazard_code": 4, "risk": 8.0 }, "geometry": { "type": "LineString", "coordinates": [ [ 78.6023073, 30.8114454 ], [ 78.6022431, 30.8113677 ] ] } },
{ "type": "Feature", "properties": { "hazard": "EXTREME", "hazard_code": 4, "risk": 8.0 }, "geometry": { "type": "LineString", "coordinates": [ [ 78.6025048, 30.8116414 ], [ 78.6023073, 30.8114454 ] ] } },
{ "type": "Feature", "properties": { "hazard": "EXTREME", "hazard_code": 4, "risk": 8.0 }, "geometry": { "type": "LineString", "coordinates": [ [ 78.602301, 30.8120605 ], [ 78.6025477, 30.8119776 ] ] } },
{ "type": "Feature", "properties": { "hazard": "EXTREME", "hazard_code": 4, "risk": 8.0 }, "geometry": { "type": "LineString", "coordinates": [ [ 78.6022044, 30.812125 ], [ 78.602301, 30.8120605 ] ] } },
{ "type": "Feature", "properties": { "hazard": "EXTREME", "hazard_code": 4, "risk": 8.0 }, "geometry": { "type": "LineString", "coordinates": [ [ 78.6020864, 30.8123323 ], [ 78.6022044, 30.812125 ] ] } },
{ "type": "Feature", "properties": { "hazard": "EXTREME", "hazard_code": 4, "risk": 8.0 }, "geometry": { "type": "LineString", "coordinates": [ [ 78.6019845, 30.8125304 ], [ 78.6020864, 30.8123323 ] ] } },
{ "type": "Feature", "properties": { "hazard": "EXTREME", "hazard_code": 4, "risk": 8.0 }, "geometry": { "type": "LineString", "coordinates": [ [ 78.6020006, 30.8126594 ], [ 78.6019845, 30.8125304 ] ] } },
{ "type": "Feature", "properties": { "hazard": "EXTREME", "hazard_code": 4, "risk": 8.0 }, "geometry": { "type": "LineString", "coordinates": [ [ 78.6021132, 30.8129219 ], [ 78.6020006, 30.8126594 ] ] } },
{ "type": "Feature", "properties": { "hazard": "EXTREME", "hazard_code": 4, "risk": 8.0 }, "geometry": { "type": "LineString", "coordinates": [ [ 78.6022634, 30.8134701 ], [ 78.6021132, 30.8129219 ] ] } },
{ "type": "Feature", "properties": { "hazard": "EXTREME", "hazard_code": 4, "risk": 8.0 }, "geometry": { "type": "LineString", "coordinates": [ [ 78.602242, 30.8135576 ], [ 78.6022634, 30.8134701 ] ] } },
{ "type": "Feature", "properties": { "hazard": "EXTREME", "hazard_code": 4, "risk": 8.0 }, "geometry": { "type": "LineString", "coordinates": [ [ 80.0369304, 29.7330062 ], [ 80.0370633, 29.7330482 ] ] } },
{ "type": "Feature", "properties": { "hazard": "EXTREME", "hazard_code": 4, "risk": 8.0 }, "geometry": { "type": "LineString", "coordinates": [ [ 80.0363825, 29.733015 ], [ 80.0369304, 29.7330062 ] ] } },
{ "type": "Feature", "properties": { "hazard": "EXTREME", "hazard_code": 4, "risk": 8.0 }, "geometry": { "type": "LineString", "coordinates": [ [ 80.0361669, 29.7329888 ], [ 80.0363825, 29.733015 ] ] } },
{ "type": "Feature", "properties": { "hazard": "EXTREME", "hazard_code": 4, "risk": 8.0 }, "geometry": { "type": "LineString", "coordinates": [ [ 80.0359031, 29.7328418 ], [ 80.0361669, 29.7329888 ] ] } },
{ "type": "Feature", "properties": { "hazard": "EXTREME", "hazard_code": 4, "risk": 8.0 }, "geometry": { "type": "LineString", "coordinates": [ [ 80.0356976, 29.7327106 ], [ 80.0359031, 29.7328418 ] ] } },
{ "type": "Feature", "properties": { "hazard": "EXTREME", "hazard_code": 4, "risk": 8.0 }, "geometry": { "type": "LineString", "coordinates": [ [ 80.0355083, 29.7326897 ], [ 80.0356976, 29.7327106 ] ] } },
{ "type": "Feature", "properties": { "hazard": "EXTREME", "hazard_code": 4, "risk": 8.0 }, "geometry": { "type": "LineString", "coordinates": [ [ 80.0354438, 29.7326005 ], [ 80.0355083, 29.7326897 ] ] } },
{ "type": "Feature", "properties": { "hazard": "EXTREME", "hazard_code": 4, "risk": 8.0 }, "geometry": { "type": "LineString", "coordinates": [ [ 80.0354438, 29.7325025 ], [ 80.0354438, 29.7326005 ] ] } },
{ "type": "Feature", "properties": { "hazard": "EXTREME", "hazard_code": 4, "risk": 8.0 }, "geometry": { "type": "LineString", "coordinates": [ [ 80.0351678, 29.7321264 ], [ 80.0354438, 29.7325025 ] ] } },
{ "type": "Feature", "properties": { "hazard": "EXTREME", "hazard_code": 4, "risk": 8.0 }, "geometry": { "type": "LineString", "coordinates": [ [ 80.0350349, 29.7320547 ], [ 80.0351678, 29.7321264 ] ] } },
{ "type": "Feature", "properties": { "hazard": "EXTREME", "hazard_code": 4, "risk": 8.0 }, "geometry": { "type": "LineString", "coordinates": [ [ 80.0344286, 29.7319008 ], [ 80.0350349, 29.7320547 ] ] } },
{ "type": "Feature", "properties": { "hazard": "EXTREME", "hazard_code": 4, "risk": 8.0 }, "geometry": { "type": "LineString", "coordinates": [ [ 80.0343339, 29.7318676 ], [ 80.0344286, 29.7319008 ] ] } },
{ "type": "Feature", "properties": { "hazard": "EXTREME", "hazard_code": 4, "risk": 8.0 }, "geometry": { "type": "LineString", "coordinates": [ [ 80.0343021, 29.7317775 ], [ 80.0342352, 29.7317521 ] ] } },
{ "type": "Feature", "properties": { "hazard": "EXTREME", "hazard_code": 4, "risk": 8.0 }, "geometry": { "type": "LineString", "coordinates": [ [ 80.0343021, 29.7317775 ], [ 80.0343339, 29.7318676 ] ] } },
{ "type": "Feature", "properties": { "hazard": "EXTREME", "hazard_code": 4, "risk": 8.0 }, "geometry": { "type": "LineString", "coordinates": [ [ 80.0387532, 29.7566516 ], [ 80.0388447, 29.7564743 ] ] } },
{ "type": "Feature", "properties": { "hazard": "EXTREME", "hazard_code": 4, "risk": 8.0 }, "geometry": { "type": "LineString", "coordinates": [ [ 80.0386244, 29.7567599 ], [ 80.0387532, 29.7566516 ] ] } },
{ "type": "Feature", "properties": { "hazard": "EXTREME", "hazard_code": 4, "risk": 8.0 }, "geometry": { "type": "LineString", "coordinates": [ [ 78.598847, 30.7989757 ], [ 78.5984179, 30.7984919 ] ] } },
{ "type": "Feature", "properties": { "hazard": "EXTREME", "hazard_code": 4, "risk": 8.0 }, "geometry": { "type": "LineString", "coordinates": [ [ 78.5990079, 30.7992245 ], [ 78.598847, 30.7989757 ] ] } },
{ "type": "Feature", "properties": { "hazard": "EXTREME", "hazard_code": 4, "risk": 8.0 }, "geometry": { "type": "LineString", "coordinates": [ [ 78.5990991, 30.7994595 ], [ 78.5990079, 30.7992245 ] ] } },
{ "type": "Feature", "properties": { "hazard": "EXTREME", "hazard_code": 4, "risk": 8.0 }, "geometry": { "type": "LineString", "coordinates": [ [ 78.5992171, 30.7996668 ], [ 78.5990991, 30.7994595 ] ] } },
{ "type": "Feature", "properties": { "hazard": "EXTREME", "hazard_code": 4, "risk": 8.0 }, "geometry": { "type": "LineString", "coordinates": [ [ 78.5993297, 30.7999157 ], [ 78.5992171, 30.7996668 ] ] } },
{ "type": "Feature", "properties": { "hazard": "EXTREME", "hazard_code": 4, "risk": 8.0 }, "geometry": { "type": "LineString", "coordinates": [ [ 78.5994531, 30.8000769 ], [ 78.5993297, 30.7999157 ] ] } },
{ "type": "Feature", "properties": { "hazard": "EXTREME", "hazard_code": 4, "risk": 8.0 }, "geometry": { "type": "LineString", "coordinates": [ [ 78.5996623, 30.8002244 ], [ 78.5994531, 30.8000769 ] ] } },
{ "type": "Feature", "properties": { "hazard": "EXTREME", "hazard_code": 4, "risk": 8.0 }, "geometry": { "type": "LineString", "coordinates": [ [ 79.0962142, 30.3229245 ], [ 79.0962839, 30.3226698 ] ] } },
{ "type": "Feature", "properties": { "hazard": "EXTREME", "hazard_code": 4, "risk": 8.0 }, "geometry": { "type": "LineString", "coordinates": [ [ 79.0961865, 30.323127 ], [ 79.0962142, 30.3229245 ] ] } },
{ "type": "Feature", "properties": { "hazard": "EXTREME", "hazard_code": 4, "risk": 8.0 }, "geometry": { "type": "LineString", "coordinates": [ [ 79.0960232, 30.323128 ], [ 79.0961865, 30.323127 ] ] } },
{ "type": "Feature", "properties": { "hazard": "EXTREME", "hazard_code": 4, "risk": 8.0 }, "geometry": { "type": "LineString", "coordinates": [ [ 79.0957582, 30.3227485 ], [ 79.0960232, 30.323128 ] ] } },
{ "type": "Feature", "properties": { "hazard": "EXTREME", "hazard_code": 4, "risk": 8.0 }, "geometry": { "type": "LineString", "coordinates": [ [ 79.0955114, 30.3222716 ], [ 79.0957582, 30.3227485 ] ] } },
{ "type": "Feature", "properties": { "hazard": "EXTREME", "hazard_code": 4, "risk": 8.0 }, "geometry": { "type": "LineString", "coordinates": [ [ 79.0994006, 30.3224105 ], [ 79.0995133, 30.3222994 ] ] } },
{ "type": "Feature", "properties": { "hazard": "EXTREME", "hazard_code": 4, "risk": 8.0 }, "geometry": { "type": "LineString", "coordinates": [ [ 79.099111, 30.3222253 ], [ 79.0994006, 30.3224105 ] ] } },
{ "type": "Feature", "properties": { "hazard": "EXTREME", "hazard_code": 4, "risk": 8.0 }, "geometry": { "type": "LineString", "coordinates": [ [ 79.0988535, 30.3220077 ], [ 79.099111, 30.3222253 ] ] } },
{ "type": "Feature", "properties": { "hazard": "EXTREME", "hazard_code": 4, "risk": 8.0 }, "geometry": { "type": "LineString", "coordinates": [ [ 79.0985423, 30.3218039 ], [ 79.0988535, 30.3220077 ] ] } },
{ "type": "Feature", "properties": { "hazard": "EXTREME", "hazard_code": 4, "risk": 8.0 }, "geometry": { "type": "LineString", "coordinates": [ [ 79.0982956, 30.3216372 ], [ 79.0985423, 30.3218039 ] ] } },
{ "type": "Feature", "properties": { "hazard": "EXTREME", "hazard_code": 4, "risk": 8.0 }, "geometry": { "type": "LineString", "coordinates": [ [ 79.0980112, 30.3215724 ], [ 79.0982956, 30.3216372 ] ] } },
{ "type": "Feature", "properties": { "hazard": "EXTREME", "hazard_code": 4, "risk": 8.0 }, "geometry": { "type": "LineString", "coordinates": [ [ 79.0978342, 30.3215677 ], [ 79.0980112, 30.3215724 ] ] } },
{ "type": "Feature", "properties": { "hazard": "EXTREME", "hazard_code": 4, "risk": 8.0 }, "geometry": { "type": "LineString", "coordinates": [ [ 79.097684, 30.3216233 ], [ 79.0978342, 30.3215677 ] ] } },
{ "type": "Feature", "properties": { "hazard": "EXTREME", "hazard_code": 4, "risk": 8.0 }, "geometry": { "type": "LineString", "coordinates": [ [ 79.0973514, 30.3218317 ], [ 79.097684, 30.3216233 ] ] } },
{ "type": "Feature", "properties": { "hazard": "EXTREME", "hazard_code": 4, "risk": 8.0 }, "geometry": { "type": "LineString", "coordinates": [ [ 79.0969759, 30.3219521 ], [ 79.0973514, 30.3218317 ] ] } },
{ "type": "Feature", "properties": { "hazard": "EXTREME", "hazard_code": 4, "risk": 8.0 }, "geometry": { "type": "LineString", "coordinates": [ [ 79.0968257, 30.3220864 ], [ 79.0969759, 30.3219521 ] ] } },
{ "type": "Feature", "properties": { "hazard": "EXTREME", "hazard_code": 4, "risk": 8.0 }, "geometry": { "type": "LineString", "coordinates": [ [ 79.0969974, 30.3222346 ], [ 79.0968257, 30.3220864 ] ] } },
{ "type": "Feature", "properties": { "hazard": "EXTREME", "hazard_code": 4, "risk": 8.0 }, "geometry": { "type": "LineString", "coordinates": [ [ 79.0971315, 30.3224151 ], [ 79.0969974, 30.3222346 ] ] } },
{ "type": "Feature", "properties": { "hazard": "EXTREME", "hazard_code": 4, "risk": 8.0 }, "geometry": { "type": "LineString", "coordinates": [ [ 79.0969169, 30.3225494 ], [ 79.0971315, 30.3224151 ] ] } },
{ "type": "Feature", "properties": { "hazard": "EXTREME", "hazard_code": 4, "risk": 8.0 }, "geometry": { "type": "LineString", "coordinates": [ [ 79.0965253, 30.3226004 ], [ 79.0969169, 30.3225494 ] ] } },
{ "type": "Feature", "properties": { "hazard": "EXTREME", "hazard_code": 4, "risk": 8.0 }, "geometry": { "type": "LineString", "coordinates": [ [ 79.0962839, 30.3226698 ], [ 79.0965253, 30.3226004 ] ] } },
{ "type": "Feature", "properties": { "hazard": "EXTREME", "hazard_code": 4, "risk": 8.0 }, "geometry": { "type": "LineString", "coordinates": [ [ 80.0384921, 29.7568169 ], [ 80.0386244, 29.7567599 ] ] } },
{ "type": "Feature", "properties": { "hazard": "EXTREME", "hazard_code": 4, "risk": 8.0 }, "geometry": { "type": "LineString", "coordinates": [ [ 80.0383662, 29.7567896 ], [ 80.0384921, 29.7568169 ] ] } },
{ "type": "Feature", "properties": { "hazard": "EXTREME", "hazard_code": 4, "risk": 8.0 }, "geometry": { "type": "LineString", "coordinates": [ [ 80.0382254, 29.7567721 ], [ 80.0383662, 29.7567896 ] ] } },
{ "type": "Feature", "properties": { "hazard": "EXTREME", "hazard_code": 4, "risk": 8.0 }, "geometry": { "type": "LineString", "coordinates": [ [ 80.0380001, 29.7567814 ], [ 80.0382254, 29.7567721 ] ] } },
{ "type": "Feature", "properties": { "hazard": "EXTREME", "hazard_code": 4, "risk": 8.0 }, "geometry": { "type": "LineString", "coordinates": [ [ 80.0375947, 29.7569032 ], [ 80.0380001, 29.7567814 ] ] } },
{ "type": "Feature", "properties": { "hazard": "EXTREME", "hazard_code": 4, "risk": 8.0 }, "geometry": { "type": "LineString", "coordinates": [ [ 80.0373207, 29.757345 ], [ 80.0375947, 29.7569032 ] ] } },
{ "type": "Feature", "properties": { "hazard": "EXTREME", "hazard_code": 4, "risk": 8.0 }, "geometry": { "type": "LineString", "coordinates": [ [ 80.0372816, 29.7577789 ], [ 80.0373207, 29.757345 ] ] } },
{ "type": "Feature", "properties": { "hazard": "EXTREME", "hazard_code": 4, "risk": 8.0 }, "geometry": { "type": "LineString", "coordinates": [ [ 80.0372063, 29.7581946 ], [ 80.0372816, 29.7577789 ] ] } },
{ "type": "Feature", "properties": { "hazard": "EXTREME", "hazard_code": 4, "risk": 8.0 }, "geometry": { "type": "LineString", "coordinates": [ [ 79.4904636, 30.7822242 ], [ 79.4908381, 30.7825119 ] ] } },
{ "type": "Feature", "properties": { "hazard": "EXTREME", "hazard_code": 4, "risk": 8.0 }, "geometry": { "type": "LineString", "coordinates": [ [ 79.4903873, 30.7821142 ], [ 79.4904636, 30.7822242 ] ] } },
{ "type": "Feature", "properties": { "hazard": "EXTREME", "hazard_code": 4, "risk": 8.0 }, "geometry": { "type": "LineString", "coordinates": [ [ 79.4903913, 30.7819274 ], [ 79.4903873, 30.7821142 ] ] } },
{ "type": "Feature", "properties": { "hazard": "EXTREME", "hazard_code": 4, "risk": 8.0 }, "geometry": { "type": "LineString", "coordinates": [ [ 79.4904204, 30.7817097 ], [ 79.4903913, 30.7819274 ] ] } },
{ "type": "Feature", "properties": { "hazard": "EXTREME", "hazard_code": 4, "risk": 8.0 }, "geometry": { "type": "LineString", "coordinates": [ [ 79.4905457, 30.7816135 ], [ 79.4904204, 30.7817097 ] ] } },
{ "type": "Feature", "properties": { "hazard": "EXTREME", "hazard_code": 4, "risk": 8.0 }, "geometry": { "type": "LineString", "coordinates": [ [ 79.4906007, 30.7815397 ], [ 79.4905457, 30.7816135 ] ] } },
{ "type": "Feature", "properties": { "hazard": "EXTREME", "hazard_code": 4, "risk": 8.0 }, "geometry": { "type": "LineString", "coordinates": [ [ 79.4904749, 30.7812345 ], [ 79.4906007, 30.7815397 ] ] } },
{ "type": "Feature", "properties": { "hazard": "EXTREME", "hazard_code": 4, "risk": 8.0 }, "geometry": { "type": "LineString", "coordinates": [ [ 79.4905041, 30.7810496 ], [ 79.4904749, 30.7812345 ] ] } },
{ "type": "Feature", "properties": { "hazard": "EXTREME", "hazard_code": 4, "risk": 8.0 }, "geometry": { "type": "LineString", "coordinates": [ [ 78.5987125, 30.804225 ], [ 78.598455, 30.8040038 ] ] } },
{ "type": "Feature", "properties": { "hazard": "EXTREME", "hazard_code": 4, "risk": 8.0 }, "geometry": { "type": "LineString", "coordinates": [ [ 78.5985142, 30.8009532 ], [ 78.5988039, 30.801096 ] ] } },
{ "type": "Feature", "properties": { "hazard": "EXTREME", "hazard_code": 4, "risk": 8.0 }, "geometry": { "type": "LineString", "coordinates": [ [ 78.5988039, 30.801096 ], [ 78.5991096, 30.8010822 ] ] } },
{ "type": "Feature", "properties": { "hazard": "EXTREME", "hazard_code": 4, "risk": 8.0 }, "geometry": { "type": "LineString", "coordinates": [ [ 78.5991096, 30.8010822 ], [ 78.5994047, 30.8011006 ] ] } },
{ "type": "Feature", "properties": { "hazard": "EXTREME", "hazard_code": 4, "risk": 8.0 }, "geometry": { "type": "LineString", "coordinates": [ [ 78.5994047, 30.8011006 ], [ 78.5996139, 30.8013218 ] ] } },
{ "type": "Feature", "properties": { "hazard": "EXTREME", "hazard_code": 4, "risk": 8.0 }, "geometry": { "type": "LineString", "coordinates": [ [ 78.5996139, 30.8013218 ], [ 78.5998177, 30.8015568 ] ] } },
{ "type": "Feature", "properties": { "hazard": "EXTREME", "hazard_code": 4, "risk": 8.0 }, "geometry": { "type": "LineString", "coordinates": [ [ 78.5998177, 30.8015568 ], [ 78.600145, 30.8016029 ] ] } },
{ "type": "Feature", "properties": { "hazard": "EXTREME", "hazard_code": 4, "risk": 8.0 }, "geometry": { "type": "LineString", "coordinates": [ [ 78.600145, 30.8016029 ], [ 78.6002845, 30.801662 ] ] } },
{ "type": "Feature", "properties": { "hazard": "EXTREME", "hazard_code": 4, "risk": 8.0 }, "geometry": { "type": "LineString", "coordinates": [ [ 79.4909392, 30.7790642 ], [ 79.4908561, 30.7790842 ] ] } }
]
}
